{
"type": "FeatureCollection",
"name": "Moose_DAUs",
"crs": { "type": "name", "properties": { "name": "urn:ogc:def:crs:OGC:1.3:CRS84" } },
"features": [
{ "type": "Feature", "properties": { "FID": 1, "ACTIVITYCO": "MOMP", "INPUT_DATE": null, "EDIT_DATE": null, "GlobalID": "19434a37-2bd1-4454-b8ce-2afcc30e66bb", "Shape__Length": 3602.4110525809838 }, "geometry": { "type": "LineString", "coordinates": [ [ -106.207634183959996, 40.352652192386998 ], [ -106.212788415156993, 40.3283011392815 ] ] } },
{ "type": "Feature", "properties": { "FID": 2, "ACTIVITYCO": "MOMP", "INPUT_DATE": null, "EDIT_DATE": null, "GlobalID": "e31a2109-1148-4dfa-b121-45d69e5ea28b", "Shape__Length": 4795.3598133739142 }, "geometry": { "type": "LineString", "coordinates": [ [ -106.333182810935, 40.355651740388403 ], [ -106.332998501711003, 40.355334050892203 ], [ -106.332813634641994, 40.3550118630816 ], [ -106.332605135986995, 40.354703460551796 ], [ -106.332367030756998, 40.354404407591197 ], [ -106.332113682297006, 40.354114538561603 ], [ -106.331857745975995, 40.353824698757897 ], [ -106.331611023858997, 40.353530247836098 ], [ -106.331375517262998, 40.353231162814097 ], [ -106.331144280139995, 40.352927523715302 ], [ -106.330915017305998, 40.352628365835699 ], [ -106.330683195722997, 40.352324732492399 ], [ -106.330445460714003, 40.352025671120998 ], [ -106.330198369027002, 40.351735725720701 ], [ -106.329943156420001, 40.351445873162803 ], [ -106.329682530669999, 40.351156082258903 ], [ -106.329414108074005, 40.350870884804102 ], [ -106.329136093515004, 40.350594805806701 ], [ -106.328845573223006, 40.350323374249903 ], [ -106.328541664542996, 40.350065609040698 ], [ -106.328229753040006, 40.349807934927597 ], [ -106.327910602328004, 40.349559261850601 ], [ -106.327584510139005, 40.349310757647601 ], [ -106.327251298204999, 40.349071343080297 ], [ -106.326910642748999, 40.348836517371502 ], [ -106.326563338349004, 40.348610775773501 ], [ -106.326208796323996, 40.348394124978597 ], [ -106.325845515759994, 40.348182077696499 ], [ -106.325473496661004, 40.347974633845098 ], [ -106.325093180332004, 40.347776292717199 ], [ -106.324703948497003, 40.347591565747898 ], [ -106.324306507298999, 40.347420444762903 ], [ -106.323900150246004, 40.347262937767198 ], [ -106.323485318341, 40.347123544055997 ], [ -106.323063012461006, 40.346993243220901 ], [ -106.322634880524006, 40.346872016334402 ], [ -106.322202835634997, 40.346755337025002 ], [ -106.321768643487999, 40.346643185068899 ], [ -106.321333746435997, 40.346531039527399 ], [ -106.320900734259993, 40.346418870812499 ], [ -106.320470373015993, 40.346297661327 ], [ -106.320044398706997, 40.346171895719799 ], [ -106.319619956259999, 40.346046111053703 ], [ -106.319196487051997, 40.345915809281102 ], [ -106.318773638015003, 40.345780994438599 ], [ -106.318350996036003, 40.345650680115199 ], [ -106.317927884786002, 40.345520369584399 ], [ -106.317504421983003, 40.345390061499899 ], [ -106.317079430476994, 40.345259769263997 ], [ -106.316653468713, 40.3451339909398 ], [ -106.316225477176005, 40.345012738575697 ], [ -106.315796309988002, 40.3448914979938 ], [ -106.315366760933003, 40.344774764591001 ], [ -106.314937596717002, 40.344653520769 ], [ -106.314509964284994, 40.344532257933501 ], [ -106.314084363047002, 40.344406375899098 ], [ -106.313661180053998, 40.344271546029397 ], [ -106.313241765545996, 40.344136671807199 ], [ -106.312825003154998, 40.343992757067198 ], [ -106.312411098038993, 40.343844303948501 ], [ -106.311999814838998, 40.343691315151098 ], [ -106.311590299155, 40.343538304832798 ], [ -106.311182463769995, 40.343380769560497 ], [ -106.310775454237998, 40.343223223476599 ], [ -106.310367888570994, 40.3430611778074 ], [ -106.309961942203003, 40.3429036167879 ], [ -106.309559590259994, 40.3427370047458 ], [ -106.309162833966994, 40.342561319063201 ], [ -106.308774114700995, 40.342381036610497 ], [ -106.308395141809001, 40.342187129244898 ], [ -106.308025531596002, 40.341984105842698 ], [ -106.307662694517006, 40.341771995772604 ], [ -106.307304041053996, 40.341550828368703 ], [ -106.306948184150002, 40.341334132673701 ], [ -106.306591418657007, 40.341112941686802 ], [ -106.306233329858998, 40.340896268970702 ], [ -106.305875243339997, 40.340679595101797 ], [ -106.305519544137994, 40.3404583887123 ], [ -106.305169850313007, 40.340237113437297 ], [ -106.304828255619, 40.340002232373998 ], [ -106.304496228458007, 40.339762737919699 ], [ -106.304172238622002, 40.339518647412099 ], [ -106.303858231375997, 40.339260930096003 ], [ -106.303556263458006, 40.338998571760698 ], [ -106.303269543854, 40.338727031892297 ], [ -106.303010227084002, 40.338441669217502 ], [ -106.302774546454003, 40.3381425263496 ], [ -106.302547962153, 40.337838776082698 ], [ -106.302322086123993, 40.337535017371899 ], [ -106.302106836448004, 40.337226634109498 ], [ -106.301900329801995, 40.336913647555001 ], [ -106.301711746785998, 40.336595954425498 ], [ -106.301522812469003, 40.336278264917297 ], [ -106.301312662807007, 40.335965318236298 ], [ -106.301067923871997, 40.335616634585499 ] ] } },
{ "type": "Feature", "properties": { "FID": 3, "ACTIVITYCO": "MOMP", "INPUT_DATE": null, "EDIT_DATE": null, "GlobalID": "48c4e4e7-d4e3-476e-9e4b-4d8e7a70de80", "Shape__Length": 3750.0194857520896 }, "geometry": { "type": "LineString", "coordinates": [ [ -105.976054533419997, 40.3727396551403 ], [ -105.975646570213001, 40.372580935664303 ], [ -105.975238726675997, 40.372422213729003 ], [ -105.974823188729999, 40.372277068722902 ], [ -105.974399838394007, 40.372145501558698 ], [ -105.973972497218, 40.372022975459899 ], [ -105.973541335779998, 40.3719049844415 ], [ -105.973105776938993, 40.371800542329701 ], [ -105.972667051222004, 40.371705134220001 ], [ -105.972226206756005, 40.371609742253 ], [ -105.971783608501994, 40.371523372350303 ], [ -105.971339662717995, 40.371441516573597 ], [ -105.970894186902001, 40.371359671933298 ], [ -105.970448134706004, 40.371286839422801 ], [ -105.970000552366997, 40.371214018022201 ], [ -105.969551686767005, 40.3711502146583 ], [ -105.969101002109994, 40.371090929299797 ], [ -105.968649387222001, 40.3710406589882 ], [ -105.968197066323995, 40.3709903928209 ], [ -105.967744339397996, 40.370944632787001 ], [ -105.967290617482007, 40.370903383808603 ], [ -105.966836253810001, 40.370866642920902 ], [ -105.966380488213005, 40.370838920977498 ], [ -105.965924840726998, 40.370811196249498 ], [ -105.965469427843004, 40.3707833776756 ], [ -105.965014487678999, 40.370755643451801 ], [ -105.964559012538004, 40.370723407390102 ], [ -105.964104073081003, 40.370695669575099 ], [ -105.963648598706996, 40.370663429917201 ], [ -105.963193659956005, 40.370635688511101 ], [ -105.962738539670994, 40.370603442315598 ], [ -105.962283826814996, 40.370566686427402 ], [ -105.961829821059993, 40.370529922867803 ], [ -105.961376811722005, 40.370488644730301 ], [ -105.960923792724003, 40.3704383558769 ], [ -105.960471073858002, 40.370392567262599 ], [ -105.960017712845001, 40.370351286714097 ], [ -105.959563002953004, 40.370314520088399 ], [ -105.959106600710001, 40.370291279238899 ], [ -105.958649909247995, 40.370272543494401 ], [ -105.958193507529998, 40.370249299033901 ], [ -105.957739216259995, 40.370217026271 ], [ -105.957287678521993, 40.3701712153958 ], [ -105.956839120498003, 40.370102855546499 ], [ -105.956392909236001, 40.370025465523 ], [ -105.955948990780001, 40.369943550308498 ], [ -105.955507066050998, 40.3698526078892 ], [ -105.955066320206996, 40.369761654039102 ], [ -105.954625865281002, 40.369666191590703 ], [ -105.954187114627999, 40.369566208884599 ], [ -105.953751010507006, 40.369461698168799 ], [ -105.953318377399995, 40.369352652675701 ], [ -105.953294291106005, 40.369346028699297 ], [ -105.952889034167995, 40.3692345694244 ], [ -105.952461332162997, 40.369107462029099 ], [ -105.952036630416004, 40.3689758238311 ], [ -105.951616106708002, 40.368839645171299 ], [ -105.951202107642004, 40.368689897766998 ], [ -105.950795819955999, 40.3685355809559 ], [ -105.950394879504998, 40.368367705221402 ], [ -105.949998878654, 40.3681907784797 ], [ -105.949610172923002, 40.368004781437897 ], [ -105.949229469029007, 40.367809708367503 ], [ -105.948858533595995, 40.367605544851202 ], [ -105.948504251906002, 40.367387729994697 ], [ -105.948171153866994, 40.3671517222934 ], [ -105.947848939048995, 40.366902110869098 ], [ -105.947527370138999, 40.366647988721098 ], [ -105.947206283054996, 40.3664028707448 ], [ -105.946890960567998, 40.366148695627402 ], [ -105.946573583670997, 40.365899040963498 ], [ -105.946245908709002, 40.365653974189698 ], [ -105.945912291789, 40.365413369498 ], [ -105.945586215461006, 40.365172792260203 ], [ -105.945045593966, 40.364758291363202 ] ] } },
{ "type": "Feature", "properties": { "FID": 4, "ACTIVITYCO": "MOMP", "INPUT_DATE": null, "EDIT_DATE": null, "GlobalID": "9fcf2d96-040f-42ad-8784-b49e0dbc217b", "Shape__Length": 3265.0318536476325 }, "geometry": { "type": "LineString", "coordinates": [ [ -106.441326618440996, 40.374034783481598 ], [ -106.446945459757998, 40.352100324408099 ] ] } },
{ "type": "Feature", "properties": { "FID": 5, "ACTIVITYCO": "MOMP", "INPUT_DATE": null, "EDIT_DATE": null, "GlobalID": "d3b1f8b0-dfcb-4e40-9d0c-782b311a4259", "Shape__Length": 4774.7612966002707 }, "geometry": { "type": "LineString", "coordinates": [ [ -106.011867531904997, 40.485994155813501 ], [ -106.010613832223001, 40.460802682508998 ], [ -106.010245000767995, 40.453387135267903 ] ] } },
{ "type": "Feature", "properties": { "FID": 6, "ACTIVITYCO": "MOMP", "INPUT_DATE": null, "EDIT_DATE": null, "GlobalID": "31656602-e303-4015-8bea-b4d291be4821", "Shape__Length": 4931.2575701035612 }, "geometry": { "type": "LineString", "coordinates": [ [ -105.969689486608999, 40.494612442384103 ], [ -105.942669959167006, 40.496108700471403 ], [ -105.925507920412997, 40.497055768664197 ] ] } },
{ "type": "Feature", "properties": { "FID": 7, "ACTIVITYCO": "MOMP", "INPUT_DATE": null, "EDIT_DATE": null, "GlobalID": "a9c6a39f-7c56-43eb-afc7-7f9050164608", "Shape__Length": 3416.7639881647283 }, "geometry": { "type": "LineString", "coordinates": [ [ -106.034516845303997, 40.516567646951103 ], [ -106.027452283119004, 40.505150820343701 ], [ -106.022629716587005, 40.497354683318001 ], [ -106.021451809165001, 40.495450171289903 ] ] } },
{ "type": "Feature", "properties": { "FID": 8, "ACTIVITYCO": "MOMP", "INPUT_DATE": null, "EDIT_DATE": null, "GlobalID": "dd59e7ea-1b00-467d-8c93-9edf55b6d297", "Shape__Length": 3196.7237155627345 }, "geometry": { "type": "LineString", "coordinates": [ [ -106.042743344062004, 40.540727220148099 ], [ -106.042799951947998, 40.5403798732887 ], [ -106.042859580815005, 40.540037003477202 ], [ -106.042915833394005, 40.539689659731799 ], [ -106.042960633028002, 40.539342419331902 ], [ -106.042988360967001, 40.538990828650597 ], [ -106.043002108802, 40.538643868516601 ], [ -106.043005987355002, 40.5382924930949 ], [ -106.043004268708003, 40.537945672547302 ], [ -106.043001417699998, 40.537594357837101 ], [ -106.043001164130999, 40.537243019657197 ], [ -106.043003105563997, 40.536896166006301 ], [ -106.043004741044001, 40.536544810731499 ], [ -106.043003306974001, 40.536193483147002 ], [ -106.042995685631993, 40.535846715763903 ], [ -106.042979258177994, 40.535495523489999 ], [ -106.042951685204997, 40.5351489361719 ], [ -106.042910890054998, 40.534802468180501 ], [ -106.042857935447998, 40.534456109908596 ], [ -106.042793932311, 40.5341053469445 ], [ -106.042720270860997, 40.533763679825 ], [ -106.042638630651993, 40.533417580271603 ], [ -106.042549859773004, 40.533076049350299 ], [ -106.042454951002, 40.532734573718798 ], [ -106.042353786377006, 40.532393154425897 ], [ -106.04224624794, 40.532051792518999 ], [ -106.042134058301997, 40.531714976811699 ], [ -106.042016605761006, 40.5313737040684 ], [ -106.041895210457, 40.531036971107198 ], [ -106.041770462678002, 40.530704772594 ], [ -106.041641632711006, 40.5303681063561 ], [ -106.041508082077996, 40.530031482505102 ], [ -106.041370116669, 40.529699402638698 ], [ -106.041228847295002, 40.5293673523596 ], [ -106.041084274002003, 40.529035331655201 ], [ -106.040937105126005, 40.528703334131102 ], [ -106.040788118663002, 40.528375857141498 ], [ -106.040637647457004, 40.528043888936899 ], [ -106.040486421104006, 40.527716431686201 ], [ -106.040333710064999, 40.527384483209602 ], [ -106.040178473219996, 40.527057061620198 ], [ -106.040018870289003, 40.526729679099802 ], [ -106.039853720899998, 40.526402346253398 ], [ -106.039681914305007, 40.526079577426103 ], [ -106.039501374257, 40.525756886893902 ], [ -106.039309809618999, 40.5254387995993 ], [ -106.039109463288995, 40.525125295316798 ], [ -106.038904348727002, 40.524816337913499 ], [ -106.038697632020003, 40.524502890150899 ], [ -106.038493278054005, 40.5241894207591 ], [ -106.038294355811004, 40.523875902172001 ], [ -106.038103864728001, 40.523557803092601 ], [ -106.037921096500995, 40.523235129924998 ], [ -106.037743051546997, 40.522912414022898 ], [ -106.037567014955002, 40.522589679788403 ], [ -106.037390459334006, 40.522271454300103 ], [ -106.037210294914999, 40.521948756536901 ], [ -106.037024654009997, 40.521630612000202 ], [ -106.036834883675994, 40.521312504197901 ], [ -106.036643344650997, 40.520994411929301 ], [ -106.036451453360996, 40.520676322479801 ], [ -106.036253613588002, 40.520362790416698 ], [ -106.035940766680994, 40.519901644638601 ] ] } },
{ "type": "Feature", "properties": { "FID": 9, "ACTIVITYCO": "MOMP", "INPUT_DATE": null, "EDIT_DATE": null, "GlobalID": "496d63a3-b85e-4648-8867-97f3f8cc4c6c", "Shape__Length": 2205.9823518078497 }, "geometry": { "type": "LineString", "coordinates": [ [ -106.042037773453998, 40.562354487895497 ], [ -106.026672178240005, 40.555189471543102 ], [ -106.025148640026003, 40.5544788451529 ] ] } },
{ "type": "Feature", "properties": { "FID": 10, "ACTIVITYCO": "MOMP", "INPUT_DATE": null, "EDIT_DATE": null, "GlobalID": "fa07c2fc-6815-41aa-a9b8-2533e8680305", "Shape__Length": 3935.0633520253227 }, "geometry": { "type": "LineString", "coordinates": [ [ -106.050965154173994, 40.565692409469598 ], [ -106.071033057858003, 40.587795417835999 ] ] } },
{ "type": "Feature", "properties": { "FID": 11, "ACTIVITYCO": "MOMP", "INPUT_DATE": null, "EDIT_DATE": null, "GlobalID": "094ddfc7-d32c-4b14-9240-a8bc869bd165", "Shape__Length": 6359.8561262231215 }, "geometry": { "type": "LineString", "coordinates": [ [ -106.116224973377001, 40.6312437529619 ], [ -106.115847654204998, 40.6310447071914 ], [ -106.115471874174006, 40.6308456453052 ], [ -106.115095032346005, 40.630646592434601 ], [ -106.114715591823995, 40.630447563405497 ], [ -106.114330628572006, 40.630257594965997 ], [ -106.113939669584994, 40.630076691625099 ], [ -106.113544295048996, 40.629900333805999 ], [ -106.113146794572003, 40.6297239951138 ], [ -106.112750080260994, 40.629552151744001 ], [ -106.112356528700005, 40.629371267973397 ], [ -106.111967988054005, 40.629185830315997 ], [ -106.111581739277995, 40.628995864995801 ], [ -106.111196438440999, 40.628805889247801 ], [ -106.110811967314007, 40.628615904218698 ], [ -106.110429035211993, 40.6284259030962 ], [ -106.110046740003995, 40.628231390286402 ], [ -106.109665865634, 40.628036862543098 ], [ -106.109286412087997, 40.627842319880401 ], [ -106.108908186636, 40.627643259881502 ], [ -106.108530555998001, 40.6274442830046 ], [ -106.108152571443995, 40.627245218188499 ], [ -106.107775769810004, 40.627046050686999 ], [ -106.107400391986005, 40.626847048458401 ], [ -106.107027541294997, 40.626643426399802 ], [ -106.106658636394002, 40.626435170939601 ], [ -106.106294154647998, 40.626222547798697 ], [ -106.105935864871, 40.626005269821498 ], [ -106.105582704626002, 40.625783437322397 ], [ -106.105232782488997, 40.625557068450703 ], [ -106.104886527370994, 40.625330663415902 ], [ -106.104542726904995, 40.625095225277903 ], [ -106.104201249092995, 40.6248642681742 ], [ -106.103861472681004, 40.624628789494302 ], [ -106.103522880784993, 40.6243932984776 ], [ -106.103185000541998, 40.624157799651698 ], [ -106.102847403224004, 40.623917792831499 ], [ -106.102509527742995, 40.623682291947901 ], [ -106.102173427809007, 40.623446773111397 ], [ -106.101839975076999, 40.623206723734199 ], [ -106.101508297894, 40.6229666564398 ], [ -106.101177731221, 40.622722073297801 ], [ -106.100847403379007, 40.6224774869142 ], [ -106.100516915449006, 40.622237405380403 ], [ -106.100184893163998, 40.621997337500602 ], [ -106.099851336542002, 40.621757283261203 ], [ -106.099515299928996, 40.621517251652598 ], [ -106.099175630725, 40.6212862622016 ], [ -106.098831944799002, 40.621055309954301 ], [ -106.098484596812995, 40.620824391501301 ], [ -106.09813408894, 40.620602510613203 ], [ -106.097780790898, 40.620376150878499 ], [ -106.097425160325997, 40.620158820792099 ], [ -106.097068039896996, 40.6199369994576 ], [ -106.096709458814999, 40.619719695164001 ], [ -106.096350407228002, 40.619502394207601 ], [ -106.09599112155, 40.6192850943401 ], [ -106.095632192804004, 40.619067789952297 ], [ -106.095274330210003, 40.618850474320801 ], [ -106.094917105611003, 40.618628647223296 ], [ -106.094560075082995, 40.618411321456698 ], [ -106.094202574049007, 40.618193999028101 ], [ -106.093844647254002, 40.617972175216799 ], [ -106.093486441650995, 40.617754857212098 ], [ -106.093127529151005, 40.617537544771402 ], [ -106.092768146164005, 40.617320235650901 ], [ -106.092408174493002, 40.6171029309644 ], [ -106.092047096480002, 40.616890139895297 ], [ -106.091684838747, 40.6166773588334 ], [ -106.091320810306001, 40.616464593352497 ], [ -106.090955365772004, 40.616251840085702 ], [ -106.090589805346994, 40.616039086741097 ], [ -106.090224084048003, 40.615830838037098 ], [ -106.089858882811995, 40.615618078956302 ], [ -106.089494865861994, 40.615405307532001 ], [ -106.089132387781007, 40.6151925204314 ], [ -106.088772321017998, 40.6149752051478 ], [ -106.088415211503005, 40.614757860854098 ], [ -106.088060749747001, 40.614535986197197 ], [ -106.087708063270995, 40.614314093715002 ], [ -106.087357433628, 40.614087676476203 ], [ -106.087008342885994, 40.613861243670698 ], [ -106.086660791029999, 40.613634795312997 ], [ -106.086313523152, 40.613403838923396 ], [ -106.085967039748994, 40.613177378393402 ], [ -106.085618594679005, 40.612946430949101 ], [ -106.085269515717997, 40.612719992691503 ], [ -106.084920793687004, 40.612493550008502 ], [ -106.084573892259996, 40.612262584858797 ], [ -106.084230302601, 40.612031587557603 ], [ -106.083891133815996, 40.611796043425699 ], [ -106.083557758791002, 40.611560443920197 ], [ -106.083231332100993, 40.6113157696618 ], [ -106.082913626665999, 40.611062004083898 ], [ -106.082603369617999, 40.610808167790204 ], [ -106.082298406310002, 40.610545272431999 ], [ -106.081996400129995, 40.6102823485434 ], [ -106.081695932778004, 40.610019409431999 ], [ -106.081394922428004, 40.6097519703019 ], [ -106.081091223144, 40.6094935641418 ], [ -106.080782962518001, 40.609230695548199 ], [ -106.080469294607994, 40.608976885305303 ], [ -106.080152792595001, 40.608723100698199 ], [ -106.079833647195997, 40.608473844223496 ], [ -106.079512376826997, 40.608224606710799 ], [ -106.079189572437002, 40.607975382620097 ], [ -106.078866133768003, 40.607730667837401 ], [ -106.078541797759001, 40.6074814562066 ], [ -106.078215409234005, 40.607236767112603 ], [ -106.077886068498998, 40.606992104631303 ], [ -106.077554911575007, 40.606751962442601 ], [ -106.077223875201994, 40.606511818161898 ], [ -106.076894541639007, 40.6062671527311 ], [ -106.076567337751996, 40.6060224664906 ], [ -106.076239899889003, 40.605777781485003 ], [ -106.075915228533006, 40.605528565453803 ], [ -106.075597295890006, 40.605279285731797 ], [ -106.075292102893002, 40.605020877889899 ], [ -106.075003713650005, 40.604748799891901 ], [ -106.074723054445002, 40.604472144913501 ], [ -106.074438615842993, 40.604195524392601 ], [ -106.074148414888001, 40.603927965359098 ], [ -106.073857435101999, 40.60365590851 ], [ -106.073567521282001, 40.603383840998397 ], [ -106.073169002805002, 40.603009182859303 ] ] } },
{ "type": "Feature", "properties": { "FID": 12, "ACTIVITYCO": "MOMP", "INPUT_DATE": null, "EDIT_DATE": null, "GlobalID": "8d473ac4-9020-4f3a-a1fb-7208c103760b", "Shape__Length": 2199.4617677804349 }, "geometry": { "type": "LineString", "coordinates": [ [ -106.083593019022999, 40.356881035170296 ], [ -106.083155536139998, 40.348108062463702 ], [ -106.082842754525004, 40.341834031547499 ] ] } },
{ "type": "Feature", "properties": { "FID": 13, "ACTIVITYCO": "MOMP", "INPUT_DATE": null, "EDIT_DATE": null, "GlobalID": "191afd16-dc0b-4a50-b63e-490e514be515", "Shape__Length": 2104.367166736462 }, "geometry": { "type": "LineString", "coordinates": [ [ -106.014247491011005, 40.382325457578901 ], [ -106.015752468890994, 40.367969848401401 ] ] } },
{ "type": "Feature", "properties": { "FID": 14, "ACTIVITYCO": "MOMP", "INPUT_DATE": null, "EDIT_DATE": null, "GlobalID": "eeac9be9-cd30-4545-9268-0ff601483553", "Shape__Length": 1980.2478764145478 }, "geometry": { "type": "LineString", "coordinates": [ [ -105.91781574753, 40.408824738662403 ], [ -105.912861080843001, 40.395814351274701 ] ] } },
{ "type": "Feature", "properties": { "FID": 15, "ACTIVITYCO": "MOMP", "INPUT_DATE": null, "EDIT_DATE": null, "GlobalID": "8a97cc0e-8f56-4821-ab49-4c40abeb2eb5", "Shape__Length": 24143.420606343967 }, "geometry": { "type": "LineString", "coordinates": [ [ -106.118596428130004, 39.851177043457199 ], [ -106.052777588395998, 39.692341836891302 ] ] } },
{ "type": "Feature", "properties": { "FID": 16, "ACTIVITYCO": "MOMP", "INPUT_DATE": null, "EDIT_DATE": null, "GlobalID": "46788341-6589-4d63-85db-31e7aeab3438", "Shape__Length": 4518.780786980521 }, "geometry": { "type": "LineString", "coordinates": [ [ -106.074777268988001, 39.5171416854432 ], [ -106.064797633978003, 39.517083447960303 ], [ -106.054510880037, 39.517022521174702 ], [ -106.047945898397998, 39.516983161284003 ], [ -106.040215897430002, 39.516936341994601 ], [ -106.034185585271004, 39.516899459703801 ] ] } },
{ "type": "Feature", "properties": { "FID": 17, "ACTIVITYCO": "MOMP", "INPUT_DATE": null, "EDIT_DATE": null, "GlobalID": "eb818cf9-34ce-43f9-a0ed-5f2f863767ec", "Shape__Length": 7458.448626233816 }, "geometry": { "type": "LineString", "coordinates": [ [ -106.086637306604004, 39.570137657682501 ], [ -106.086646347696998, 39.569988957678198 ], [ -106.087394642126995, 39.557679400005803 ], [ -106.087450704749997, 39.556757022817798 ], [ -106.087469765462004, 39.556443414380098 ], [ -106.088927910013993, 39.532445783672003 ], [ -106.089773198290004, 39.518528130946201 ] ] } },
{ "type": "Feature", "properties": { "FID": 18, "ACTIVITYCO": "MOMP", "INPUT_DATE": null, "EDIT_DATE": null, "GlobalID": "2c0b8a4d-483a-4ecd-8b44-3e773c17ba59", "Shape__Length": 8019.4442734269278 }, "geometry": { "type": "LineString", "coordinates": [ [ -106.028999352756003, 39.432401553055897 ], [ -105.996706667721995, 39.405102820145601 ], [ -105.992769737661007, 39.401772620000699 ], [ -105.988158801086001, 39.397871703519399 ], [ -105.984882076446993, 39.395099168574198 ], [ -105.980406600665006, 39.391311822428001 ] ] } },
{ "type": "Feature", "properties": { "FID": 19, "ACTIVITYCO": "MOMP", "INPUT_DATE": null, "EDIT_DATE": null, "GlobalID": "34d07ac9-428b-4387-9b50-ebecd278968d", "Shape__Length": 8629.726992619866 }, "geometry": { "type": "LineString", "coordinates": [ [ -106.042893458687004, 39.413964864264202 ], [ -106.043693363573993, 39.411951280213302 ], [ -106.052035948625004, 39.390943610086197 ], [ -106.052647246150997, 39.389403780682898 ], [ -106.062412333113002, 39.364796585721798 ], [ -106.065630447217998, 39.3566833372847 ] ] } },
{ "type": "Feature", "properties": { "FID": 20, "ACTIVITYCO": "MOMP", "INPUT_DATE": null, "EDIT_DATE": null, "GlobalID": "ad38bdc8-f13e-4220-85fa-7f9539a5a950", "Shape__Length": 5851.6775273233843 }, "geometry": { "type": "LineString", "coordinates": [ [ -106.058582366340005, 39.462657417332601 ], [ -106.058607108445997, 39.456835255199003 ], [ -106.058690722557998, 39.4371711597474 ], [ -106.058755019016999, 39.422062407321903 ] ] } },
{ "type": "Feature", "properties": { "FID": 21, "ACTIVITYCO": "MOMP", "INPUT_DATE": null, "EDIT_DATE": null, "GlobalID": "3782db06-3a7b-4cb3-aaf1-695ed9d4e40f", "Shape__Length": 18813.121633998624 }, "geometry": { "type": "LineString", "coordinates": [ [ -106.117018163986998, 39.620208350656497 ], [ -106.122105756747004, 39.632285108439298 ], [ -106.12226466621, 39.632662249397299 ], [ -106.124211867501998, 39.637283184862703 ], [ -106.126114572182004, 39.641797876136202 ], [ -106.129610677895997, 39.650091685741501 ], [ -106.130953711090001, 39.653277187507101 ], [ -106.133478942631996, 39.659265847203898 ], [ -106.137721754363, 39.669325264477997 ], [ -106.138423216589999, 39.670988077957801 ], [ -106.140892165279993, 39.676840014426702 ], [ -106.147959451885001, 39.693585043938903 ], [ -106.148423711435996, 39.694684738518397 ], [ -106.150352998242994, 39.699254245137801 ], [ -106.151301992054997, 39.701501691455199 ], [ -106.151492875406007, 39.701953730419802 ], [ -106.153820096133998, 39.7074643994818 ], [ -106.156345705556006, 39.713443753018197 ], [ -106.162706505410995, 39.728497888769603 ], [ -106.165103565633004, 39.7341691683012 ], [ -106.169222042103996, 39.743910835295402 ] ] } },
{ "type": "Feature", "properties": { "FID": 22, "ACTIVITYCO": "MOMP", "INPUT_DATE": null, "EDIT_DATE": null, "GlobalID": "a0f1092f-f600-46c8-a2d5-25957c8acc10", "Shape__Length": 919.18450455446145 }, "geometry": { "type": "LineString", "coordinates": [ [ -105.748629183559004, 39.847364912733703 ], [ -105.749412994487002, 39.847308393489897 ], [ -105.751252104607005, 39.847175756056401 ], [ -105.755188971495997, 39.846891729280202 ], [ -105.75527107357, 39.846885804138303 ], [ -105.755484452477006, 39.846870406088499 ], [ -105.756850146066, 39.846771841804703 ] ] } },
{ "type": "Feature", "properties": { "FID": 23, "ACTIVITYCO": "MOMP", "INPUT_DATE": null, "EDIT_DATE": null, "GlobalID": "a08d50cc-dc93-46e5-83b6-649c68f5041c", "Shape__Length": 935.54463510337996 }, "geometry": { "type": "LineString", "coordinates": [ [ -105.747398608680996, 39.863024862254498 ], [ -105.751104907924002, 39.863000921353901 ], [ -105.754555895978001, 39.8629785231591 ], [ -105.755802449683003, 39.862970407318102 ] ] } },
{ "type": "Feature", "properties": { "FID": 24, "ACTIVITYCO": "MOMP", "INPUT_DATE": null, "EDIT_DATE": null, "GlobalID": "35c1e1cf-3b54-4635-a355-ff9e16d9465f", "Shape__Length": 993.77190502675978 }, "geometry": { "type": "LineString", "coordinates": [ [ -105.752846048197995, 39.832765022658798 ], [ -105.753183824852002, 39.832757722512703 ], [ -105.761129150265006, 39.832585729527402 ], [ -105.761707506414993, 39.832573188645497 ], [ -105.761769707845005, 39.832571839599098 ] ] } },
{ "type": "Feature", "properties": { "FID": 25, "ACTIVITYCO": "MOMP", "INPUT_DATE": null, "EDIT_DATE": null, "GlobalID": "aa244d9c-fe60-4a9b-944f-bc46ab3eb99b", "Shape__Length": 1219.3145820235297 }, "geometry": { "type": "LineString", "coordinates": [ [ -105.857068211552999, 40.215279793811497 ], [ -105.860455494902993, 40.223233519136301 ] ] } },
{ "type": "Feature", "properties": { "FID": 26, "ACTIVITYCO": "MOMP", "INPUT_DATE": null, "EDIT_DATE": null, "GlobalID": "00ec52e6-7810-45de-b9ce-a582749773ef", "Shape__Length": 947.93212133703378 }, "geometry": { "type": "LineString", "coordinates": [ [ -105.857906954656997, 40.209394414613101 ], [ -105.858792632320998, 40.209670975952498 ], [ -105.865789073773996, 40.211855368066601 ] ] } },
{ "type": "Feature", "properties": { "FID": 27, "ACTIVITYCO": "MOMP", "INPUT_DATE": null, "EDIT_DATE": null, "GlobalID": "80ad3e27-20b8-4b3c-9e53-bdab30941db3", "Shape__Length": 1879.8224142028803 }, "geometry": { "type": "LineString", "coordinates": [ [ -106.108802930587999, 39.568890039866098 ], [ -106.109344808106002, 39.569502610398999 ], [ -106.109410958552999, 39.569592145258298 ], [ -106.110668101721004, 39.5712936243755 ], [ -106.110704472931999, 39.571342848763798 ], [ -106.111522279859997, 39.572570512903802 ], [ -106.112271962950999, 39.573695865901001 ], [ -106.112340117179997, 39.573798170615298 ], [ -106.113164569296998, 39.575437587167499 ], [ -106.113719717622999, 39.576873664686197 ], [ -106.113856036946999, 39.5770782721141 ], [ -106.114252976684995, 39.577674046889598 ], [ -106.114537644552001, 39.5781013047879 ], [ -106.115355600719994, 39.579328938469402 ], [ -106.116173586130003, 39.5805565657298 ] ] } },
{ "type": "Feature", "properties": { "FID": 28, "ACTIVITYCO": "MOMP", "INPUT_DATE": null, "EDIT_DATE": null, "GlobalID": "ee7edf60-eaa9-40e0-9670-1c14866b06c2", "Shape__Length": 18963.253880239274 }, "geometry": { "type": "LineString", "coordinates": [ [ -106.673606373110005, 37.975414302928797 ], [ -106.627516819136005, 38.017226070904997 ], [ -106.605007802939994, 38.037622496635699 ], [ -106.561847481076001, 38.076689014067199 ] ] } },
{ "type": "Feature", "properties": { "FID": 29, "ACTIVITYCO": "MOMP", "INPUT_DATE": null, "EDIT_DATE": null, "GlobalID": "7693ed00-f4c7-4c6a-8869-eaccc2bb97bd", "Shape__Length": 13245.839365386149 }, "geometry": { "type": "LineString", "coordinates": [ [ -106.538153393879995, 37.979782611081802 ], [ -106.558607210279007, 37.979599896530303 ], [ -106.594592565466996, 37.979269802826998 ], [ -106.623223873032003, 37.978999300244503 ], [ -106.657134411868, 37.978669901966697 ] ] } },
{ "type": "Feature", "properties": { "FID": 30, "ACTIVITYCO": "MOMP", "INPUT_DATE": null, "EDIT_DATE": null, "GlobalID": "72941542-b78f-498a-9c3e-09184a17b741", "Shape__Length": 23778.656886819077 }, "geometry": { "type": "LineString", "coordinates": [ [ -106.529994241024994, 38.077108093863401 ], [ -106.511021406788998, 38.0921300596669 ], [ -106.482068725334997, 38.115036177013799 ], [ -106.447797804274998, 38.142122517448101 ], [ -106.351331844710003, 38.133701313201797 ] ] } },
{ "type": "Feature", "properties": { "FID": 31, "ACTIVITYCO": "MOMP", "INPUT_DATE": null, "EDIT_DATE": 1366783200000.0, "GlobalID": "7a7c9a91-3702-4a54-9438-025d38ddbe62", "Shape__Length": 5358.5506770505954 }, "geometry": { "type": "LineString", "coordinates": [ [ -105.524024687364999, 40.021253006231298 ], [ -105.520312902064006, 40.0208438796123 ], [ -105.514039000737995, 40.020152066680197 ], [ -105.479797974676998, 40.016370119055999 ], [ -105.476380696457994, 40.015992099308797 ] ] } },
{ "type": "Feature", "properties": { "FID": 32, "ACTIVITYCO": "MOMP", "INPUT_DATE": null, "EDIT_DATE": 1366783200000.0, "GlobalID": "79b91324-d4ff-4133-b784-1ca334eb372e", "Shape__Length": 4097.2389825158625 }, "geometry": { "type": "LineString", "coordinates": [ [ -105.530001110563006, 40.034535666356099 ], [ -105.529237273343995, 40.034553962297899 ], [ -105.525560115917997, 40.034641969925403 ], [ -105.519643407255998, 40.034783332767198 ], [ -105.493212751479007, 40.035411121041697 ] ] } },
{ "type": "Feature", "properties": { "FID": 33, "ACTIVITYCO": "MOMP", "INPUT_DATE": null, "EDIT_DATE": 1369029600000.0, "GlobalID": "8f7f6bfe-7447-440b-a340-a4e03e242b4f", "Shape__Length": 5445.9693904501855 }, "geometry": { "type": "LineString", "coordinates": [ [ -105.770645133553003, 39.454882394263002 ], [ -105.760848433459998, 39.450070221768598 ], [ -105.750729464383994, 39.445098173898501 ], [ -105.743194933750999, 39.441394972768201 ], [ -105.741116664239001, 39.440373353264597 ], [ -105.740016711723996, 39.439832619408598 ], [ -105.729372167099001, 39.434598812128897 ] ] } },
{ "type": "Feature", "properties": { "FID": 34, "ACTIVITYCO": "MOMP", "INPUT_DATE": null, "EDIT_DATE": 1369029600000.0, "GlobalID": "f9c9507c-ef81-41f2-9393-ced51e2963d4", "Shape__Length": 8040.242001220533 }, "geometry": { "type": "LineString", "coordinates": [ [ -105.767966824788999, 39.4476472779929 ], [ -105.769015512660999, 39.447332877766499 ], [ -105.773946815301002, 39.4458542934618 ], [ -105.774966774980996, 39.445548438512702 ], [ -105.787057939926001, 39.441921783620998 ], [ -105.787499483158001, 39.441789315672203 ], [ -105.788998233881998, 39.441339655485599 ], [ -105.795495863324007, 39.439389926510202 ], [ -105.808478569545002, 39.4354928274591 ], [ -105.835287573445001, 39.4274394605292 ] ] } },
{ "type": "Feature", "properties": { "FID": 35, "ACTIVITYCO": "MOMP", "INPUT_DATE": null, "EDIT_DATE": 1369029600000.0, "GlobalID": "e106a848-7348-4cab-89c1-bf48b33d3e7a", "Shape__Length": 7319.6047846659667 }, "geometry": { "type": "LineString", "coordinates": [ [ -105.716819883143003, 39.5785236738962 ], [ -105.712903730611004, 39.569210984228199 ], [ -105.700829084025997, 39.540480310165499 ], [ -105.699917257658996, 39.538309652319697 ], [ -105.696551253427998, 39.530295414394402 ] ] } },
{ "type": "Feature", "properties": { "FID": 36, "ACTIVITYCO": "MOMP", "INPUT_DATE": null, "EDIT_DATE": 1369029600000.0, "GlobalID": "0de90522-532a-465b-805f-93603e7657ce", "Shape__Length": 10418.073032861656 }, "geometry": { "type": "LineString", "coordinates": [ [ -105.676072119937004, 39.511075591540703 ], [ -105.637762400021998, 39.523663733572 ], [ -105.634374780155994, 39.524776043155299 ], [ -105.617529273158993, 39.530305199104099 ], [ -105.590939177340005, 39.539026058613601 ], [ -105.589960620488995, 39.539346842313698 ] ] } },
{ "type": "Feature", "properties": { "FID": 37, "ACTIVITYCO": "MOMP", "INPUT_DATE": null, "EDIT_DATE": 1369288800000.0, "GlobalID": "ec3055e8-696e-4983-b751-41c823b4141b", "Shape__Length": 6720.8769048874956 }, "geometry": { "type": "LineString", "coordinates": [ [ -105.911083907785994, 39.761227392530202 ], [ -105.896883524662002, 39.7631973878987 ], [ -105.883773800578993, 39.765014439538298 ], [ -105.851666337618994, 39.769457997256403 ] ] } },
{ "type": "Feature", "properties": { "FID": 38, "ACTIVITYCO": "MOMP", "INPUT_DATE": null, "EDIT_DATE": 1369288800000.0, "GlobalID": "ad074e9d-d3c0-4052-bf7c-85855f87dfc8", "Shape__Length": 2286.8479890977555 }, "geometry": { "type": "LineString", "coordinates": [ [ -105.861154979557995, 39.710483152364702 ], [ -105.861153704550006, 39.710455573900497 ], [ -105.860564464353999, 39.697704608041398 ], [ -105.860425094262993, 39.694687867771499 ] ] } },
{ "type": "Feature", "properties": { "FID": 39, "ACTIVITYCO": "MOMP", "INPUT_DATE": 1409032800000.0, "EDIT_DATE": 1409032800000.0, "GlobalID": "ea92c6ea-a424-44ae-adff-76065ed8b13d", "Shape__Length": 10824.965135016006 }, "geometry": { "type": "LineString", "coordinates": [ [ -106.162313273077004, 40.075399192754098 ], [ -106.153214285364996, 40.065764495399399 ], [ -106.147057004027999, 40.0538115737642 ], [ -106.138574105485006, 40.036160169613503 ], [ -106.125678862925994, 40.0214115346661 ], [ -106.115829788086998, 40.010636840217103 ] ] } },
{ "type": "Feature", "properties": { "FID": 40, "ACTIVITYCO": "MOMP", "INPUT_DATE": 1409032800000.0, "EDIT_DATE": 1409032800000.0, "GlobalID": "6c1aed97-f02c-457c-9cb2-f71470ca525f", "Shape__Length": 6714.7941629904763 }, "geometry": { "type": "LineString", "coordinates": [ [ -106.058912440271001, 40.282602802614299 ], [ -106.067892132520001, 40.279659869841403 ], [ -106.075037997555995, 40.278878594102601 ], [ -106.082362744839003, 40.279241500591603 ], [ -106.083136228639006, 40.279279795788597 ], [ -106.094850549661004, 40.281523276638502 ], [ -106.094999466328005, 40.281551787411097 ], [ -106.102790786468006, 40.282192882405802 ], [ -106.109247255873001, 40.282131160041203 ], [ -106.109325781387994, 40.282130407137103 ], [ -106.111093557602004, 40.282413515366102 ], [ -106.117751441208, 40.283479505880202 ] ] } },
{ "type": "Feature", "properties": { "FID": 41, "ACTIVITYCO": "MOMP", "INPUT_DATE": 1409032800000.0, "EDIT_DATE": 1409032800000.0, "GlobalID": "8a065ff8-cf91-4977-b159-e9f8b4369caf", "Shape__Length": 1031.4048917046202 }, "geometry": { "type": "LineString", "coordinates": [ [ -105.820914980286005, 40.251428538674602 ], [ -105.822113407776996, 40.2523299235135 ], [ -105.823728109290997, 40.2535443463874 ], [ -105.826755367462994, 40.256879010531399 ] ] } },
{ "type": "Feature", "properties": { "FID": 42, "ACTIVITYCO": "MOMP", "INPUT_DATE": 1409032800000.0, "EDIT_DATE": 1409032800000.0, "GlobalID": "87dabc6a-c0da-470e-938b-eb8087b96ae8", "Shape__Length": 1798.0547999706039 }, "geometry": { "type": "LineString", "coordinates": [ [ -105.833513664917007, 40.255915187069398 ], [ -105.840989653839003, 40.255861096566001 ], [ -105.842274089024002, 40.255851754757103 ], [ -105.849646511513001, 40.256255528940102 ] ] } },
{ "type": "Feature", "properties": { "FID": 43, "ACTIVITYCO": "MOMP", "INPUT_DATE": 1409032800000.0, "EDIT_DATE": 1409032800000.0, "GlobalID": "48dbfb74-e803-4217-851e-9c17d1645aab", "Shape__Length": 2554.1451340525464 }, "geometry": { "type": "LineString", "coordinates": [ [ -105.847804917209004, 40.284186856984299 ], [ -105.843127051837001, 40.276440675716501 ], [ -105.838841003409996, 40.268081225903003 ] ] } },
{ "type": "Feature", "properties": { "FID": 44, "ACTIVITYCO": "MOMP", "INPUT_DATE": 1409032800000.0, "EDIT_DATE": 1409032800000.0, "GlobalID": "516f7481-ca78-41a6-95fe-188886d326a8", "Shape__Length": 3030.6785824340504 }, "geometry": { "type": "LineString", "coordinates": [ [ -105.845186572515004, 40.249880801620499 ], [ -105.852037771558997, 40.240524582479999 ], [ -105.858896736751007, 40.231930677074402 ] ] } },
{ "type": "Feature", "properties": { "FID": 45, "ACTIVITYCO": "MOMP", "INPUT_DATE": 1409032800000.0, "EDIT_DATE": 1409032800000.0, "GlobalID": "1084c165-3d40-4a7a-90d7-e76fb71e2bee", "Shape__Length": 4339.927901731663 }, "geometry": { "type": "LineString", "coordinates": [ [ -105.765345020422998, 40.267370233000499 ], [ -105.769916247593997, 40.264929501841401 ], [ -105.780388291201007, 40.259336791720003 ], [ -105.785661933103, 40.256685358020398 ], [ -105.797610803610993, 40.250676165093502 ] ] } },
{ "type": "Feature", "properties": { "FID": 46, "ACTIVITYCO": "MOMP", "INPUT_DATE": 1409119200000.0, "EDIT_DATE": 1409119200000.0, "GlobalID": "bf949608-8362-4d3a-bc7d-7df190ba1718", "Shape__Length": 19715.617794743088 }, "geometry": { "type": "LineString", "coordinates": [ [ -106.336509995464993, 39.9124544604175 ], [ -106.338519349395995, 39.917016016325597 ], [ -106.341024010856998, 39.922701067744697 ], [ -106.358134888690998, 39.961511502873201 ], [ -106.377605454101001, 40.005615502974798 ], [ -106.378260217122005, 40.007097562853701 ], [ -106.386539685611993, 40.025832117170502 ], [ -106.388746024162003, 40.030822658066697 ], [ -106.393254916627995, 40.041018881145298 ] ] } },
{ "type": "Feature", "properties": { "FID": 47, "ACTIVITYCO": "MOMP", "INPUT_DATE": 1409119200000.0, "EDIT_DATE": 1409119200000.0, "GlobalID": "f4594bad-5727-474c-b3d3-5f65b35d5b6a", "Shape__Length": 17378.392173002449 }, "geometry": { "type": "LineString", "coordinates": [ [ -106.388834895349007, 40.045935488330301 ], [ -106.372785637459998, 40.046337140329797 ], [ -106.315210628613997, 40.047759701015799 ], [ -106.309318146709003, 40.047903676107097 ], [ -106.297645120197004, 40.050108483865998 ], [ -106.297553835106001, 40.050125720434103 ], [ -106.250486527103007, 40.059002459325299 ], [ -106.247961094833002, 40.059478144044 ], [ -106.234986375456003, 40.061921065860503 ] ] } },
{ "type": "Feature", "properties": { "FID": 48, "ACTIVITYCO": "MOMP", "INPUT_DATE": 1409205600000.0, "EDIT_DATE": 1409205600000.0, "GlobalID": "5e6fd096-4845-4c01-aaf6-15fa73322d75", "Shape__Length": 5210.7578379790903 }, "geometry": { "type": "LineString", "coordinates": [ [ -105.923647630519, 39.4773541219093 ], [ -105.921705805464001, 39.475481390029898 ], [ -105.915259955547, 39.469263923508301 ], [ -105.908694069628993, 39.462929143476401 ], [ -105.906626708209998, 39.461387724573697 ], [ -105.892240131148, 39.450658190518404 ] ] } },
{ "type": "Feature", "properties": { "FID": 49, "ACTIVITYCO": "MOMP", "INPUT_DATE": 1434520800000.0, "EDIT_DATE": 1434520800000.0, "GlobalID": "8c59aa39-30c6-4fda-9c3b-c2218dc82765", "Shape__Length": 6868.6660946294569 }, "geometry": { "type": "LineString", "coordinates": [ [ -106.497849153054005, 37.967243260469701 ], [ -106.456272507386004, 37.931292100821203 ] ] } },
{ "type": "Feature", "properties": { "FID": 50, "ACTIVITYCO": "MOMP", "INPUT_DATE": 1468389600000.0, "EDIT_DATE": 1468389600000.0, "GlobalID": "4002b4e5-782d-4b8a-8149-23e9d584eb7b", "Shape__Length": 12674.847713683725 }, "geometry": { "type": "LineString", "coordinates": [ [ -106.352823931431004, 38.703035929820601 ], [ -106.366536407164006, 38.700964589106498 ], [ -106.366887497121994, 38.7009115322412 ], [ -106.368032044662002, 38.700645091496298 ], [ -106.368327867988995, 38.700576224225799 ], [ -106.387042271865994, 38.696217753889599 ], [ -106.406333600788003, 38.694026488652 ], [ -106.414681331634995, 38.6960350139925 ], [ -106.415056921241003, 38.696125366970598 ], [ -106.415721676293998, 38.696285278894102 ], [ -106.422560194202006, 38.6979300717977 ], [ -106.427405898531006, 38.703028154156698 ], [ -106.4297625504, 38.705507203689599 ], [ -106.434421649629996, 38.7109760439035 ], [ -106.434752670365, 38.712062514280902 ], [ -106.435882636065003, 38.715770994697202 ], [ -106.440297512873002, 38.7203513098207 ], [ -106.436995956019999, 38.725917840266703 ] ] } },
{ "type": "Feature", "properties": { "FID": 51, "ACTIVITYCO": "MOMP", "INPUT_DATE": 1502258400000.0, "EDIT_DATE": 1502258400000.0, "GlobalID": "073537c3-82b8-46ec-89ba-3c66bc7f88ff", "Shape__Length": 9578.3250457513077 }, "geometry": { "type": "LineString", "coordinates": [ [ -105.408400729980002, 39.230891028433902 ], [ -105.333366722758996, 39.198263606104199 ] ] } },
{ "type": "Feature", "properties": { "FID": 52, "ACTIVITYCO": "MOMP", "INPUT_DATE": 1502258400000.0, "EDIT_DATE": 1502258400000.0, "GlobalID": "2d385dfc-2861-42b1-ab01-f7f10a8c0422", "Shape__Length": 9409.0871425756832 }, "geometry": { "type": "LineString", "coordinates": [ [ -105.728582612940002, 39.877543382930398 ], [ -105.719815978433999, 39.878084750719303 ], [ -105.709044757255995, 39.8787489903101 ], [ -105.698047481892004, 39.879426125213499 ], [ -105.673906884478995, 39.880908833663 ], [ -105.666236590029996, 39.881378876082998 ], [ -105.664119248741002, 39.8815085381815 ], [ -105.644328818084006, 39.882718577557299 ] ] } },
{ "type": "Feature", "properties": { "FID": 53, "ACTIVITYCO": "MOMP", "INPUT_DATE": 1502258400000.0, "EDIT_DATE": 1502258400000.0, "GlobalID": "b6d756ed-ef08-46d8-87c6-289fe6894a9b", "Shape__Length": 8074.2143938117824 }, "geometry": { "type": "LineString", "coordinates": [ [ -105.714805422961007, 39.757431236387397 ], [ -105.696619187500005, 39.757760487891197 ], [ -105.686441451703004, 39.757943504931198 ], [ -105.642293111358995, 39.758727045027399 ] ] } },
{ "type": "Feature", "properties": { "FID": 54, "ACTIVITYCO": "MOMP", "INPUT_DATE": 1563948000000.0, "EDIT_DATE": 1563948000000.0, "GlobalID": "16dac49f-0c4f-48bd-aaf6-90556a910868", "Shape__Length": 13235.643927594821 }, "geometry": { "type": "LineString", "coordinates": [ [ -107.395805896029003, 37.546562080636299 ], [ -107.396648881934993, 37.530808496532003 ], [ -107.40554532198, 37.514175742576398 ], [ -107.407417297223006, 37.512279318837599 ], [ -107.412770036704003, 37.506855997084401 ], [ -107.418153546835001, 37.501400492884599 ], [ -107.432667618181, 37.492161152516601 ], [ -107.445255907554994, 37.4790258495945 ], [ -107.454782978588995, 37.4684564388211 ] ] } },
{ "type": "Feature", "properties": { "FID": 55, "ACTIVITYCO": "MOMP", "INPUT_DATE": 1563948000000.0, "EDIT_DATE": 1563948000000.0, "GlobalID": "19711f9d-ef7d-4192-a5a0-86dc3ce7e5c4", "Shape__Length": 3419.2351944319353 }, "geometry": { "type": "LineString", "coordinates": [ [ -107.354408356164996, 37.594187543911303 ], [ -107.356334151116997, 37.591202375755103 ], [ -107.360835525840002, 37.584223802011998 ], [ -107.370610129446007, 37.573596429572298 ] ] } },
{ "type": "Feature", "properties": { "FID": 56, "ACTIVITYCO": "MOMP", "INPUT_DATE": 1563948000000.0, "EDIT_DATE": 1563948000000.0, "GlobalID": "87a6bd14-17d9-42fc-a09d-84b645b2b39a", "Shape__Length": 4889.1647791252954 }, "geometry": { "type": "LineString", "coordinates": [ [ -107.770073408805004, 37.802465382534002 ], [ -107.729639942505003, 37.813128033711301 ], [ -107.728412600819993, 37.813451432074999 ] ] } },
{ "type": "Feature", "properties": { "FID": 57, "ACTIVITYCO": "MOMP", "INPUT_DATE": 1563948000000.0, "EDIT_DATE": 1563948000000.0, "GlobalID": "89f53c28-9fe3-46d5-8a42-31c9fc8525e7", "Shape__Length": 4719.2766270572056 }, "geometry": { "type": "LineString", "coordinates": [ [ -107.606335545015995, 37.828615170436002 ], [ -107.609013824494994, 37.827851282540301 ], [ -107.613478264603003, 37.826577784110199 ], [ -107.627516734799002, 37.822571887380299 ], [ -107.629118719713006, 37.8221146266416 ], [ -107.637189532620994, 37.819810531010098 ], [ -107.646206675461002, 37.817235459455397 ] ] } },
{ "type": "Feature", "properties": { "FID": 58, "ACTIVITYCO": "MOMP", "INPUT_DATE": 1653458400000.0, "EDIT_DATE": 1653458400000.0, "GlobalID": "14da88b4-2383-4507-b75a-189e50da8595", "Shape__Length": 8034.5662189087798 }, "geometry": { "type": "LineString", "coordinates": [ [ -105.605942767670001, 39.5989726480706 ], [ -105.601328497607994, 39.599793486192503 ], [ -105.589203776793994, 39.6019494023814 ], [ -105.535611001174999, 39.611462090162199 ] ] } },
{ "type": "Feature", "properties": { "FID": 59, "ACTIVITYCO": "MOMP", "INPUT_DATE": 1653458400000.0, "EDIT_DATE": 1653458400000.0, "GlobalID": "86bfd299-6de9-442a-9b94-9ca61621a8e9", "Shape__Length": 5655.4129026713254 }, "geometry": { "type": "LineString", "coordinates": [ [ -105.655284648432001, 39.634972347263201 ], [ -105.654267449266001, 39.6515941888456 ], [ -105.652892975000995, 39.674042875409597 ] ] } },
{ "type": "Feature", "properties": { "FID": 60, "ACTIVITYCO": "MOMP", "INPUT_DATE": 1653458400000.0, "EDIT_DATE": 1653458400000.0, "GlobalID": "dd7ed633-a6ef-4b5c-9818-7f53c686ea5f", "Shape__Length": 5686.8527519552945 }, "geometry": { "type": "LineString", "coordinates": [ [ -105.378569784427, 39.5585915704794 ], [ -105.359200818614994, 39.5421243572507 ], [ -105.344253522806, 39.529408789691701 ] ] } },
{ "type": "Feature", "properties": { "FID": 61, "ACTIVITYCO": "MOMP", "INPUT_DATE": 1693893600000.0, "EDIT_DATE": 1693893600000.0, "GlobalID": "66178c7c-3c42-42ff-aff7-09d8dd24519f", "Shape__Length": 17666.175544054353 }, "geometry": { "type": "LineString", "coordinates": [ [ -106.807210433395994, 40.446709186679598 ], [ -106.739983523939003, 40.4492444162683 ], [ -106.739673852544996, 40.449256004014202 ], [ -106.737898001324993, 40.449322436876201 ], [ -106.684552093473002, 40.451305294549499 ], [ -106.669000018080993, 40.451878709493599 ], [ -106.648702949904006, 40.452623915705097 ] ] } },
{ "type": "Feature", "properties": { "FID": 62, "ACTIVITYCO": "MOMP", "INPUT_DATE": 1693893600000.0, "EDIT_DATE": 1693893600000.0, "GlobalID": "547fcaea-4b61-4d18-9c88-8b9604712d00", "Shape__Length": 11258.974905552903 }, "geometry": { "type": "LineString", "coordinates": [ [ -106.801982572461995, 40.468616125738897 ], [ -106.739871623468005, 40.484913674223897 ], [ -106.739513978358005, 40.485007399891401 ], [ -106.711971284363997, 40.492221226066398 ], [ -106.706363948573994, 40.493688880971703 ] ] } },
{ "type": "Feature", "properties": { "FID": 63, "ACTIVITYCO": "MOMP", "INPUT_DATE": 1693893600000.0, "EDIT_DATE": 1693893600000.0, "GlobalID": "08b6f10b-327d-400d-b260-4a0f3882b190", "Shape__Length": 4917.0358952363977 }, "geometry": { "type": "LineString", "coordinates": [ [ -106.813919859147006, 40.4861940597984 ], [ -106.778895779473004, 40.506660463972501 ] ] } },
{ "type": "Feature", "properties": { "FID": 64, "ACTIVITYCO": "MOMP", "INPUT_DATE": 1693893600000.0, "EDIT_DATE": 1693893600000.0, "GlobalID": "3641cc86-5a76-4be4-8480-54014db6a046", "Shape__Length": 16500.915170766679 }, "geometry": { "type": "LineString", "coordinates": [ [ -106.802023851635994, 40.457865591620099 ], [ -106.741386572142005, 40.463007985946 ], [ -106.736817908168007, 40.463394117719901 ], [ -106.701821398411994, 40.466345814085997 ], [ -106.692362685988002, 40.467141727270999 ], [ -106.670694351652998, 40.468962050311703 ], [ -106.654697856282993, 40.470303227706403 ] ] } },
{ "type": "Feature", "properties": { "FID": 65, "ACTIVITYCO": "MOMP", "INPUT_DATE": 1693893600000.0, "EDIT_DATE": 1693893600000.0, "GlobalID": "ffc26120-76d6-4a96-8557-ed350b08594e", "Shape__Length": 4787.0586231813959 }, "geometry": { "type": "LineString", "coordinates": [ [ -106.821706329215004, 40.503320365421999 ], [ -106.785755736541006, 40.521260121009398 ] ] } },
{ "type": "Feature", "properties": { "FID": 66, "ACTIVITYCO": "MOMP", "INPUT_DATE": 1693893600000.0, "EDIT_DATE": 1693893600000.0, "GlobalID": "8efacb7a-e782-49e0-9d8f-ba13635e5bca", "Shape__Length": 3185.4310466090064 }, "geometry": { "type": "LineString", "coordinates": [ [ -106.851697833512006, 40.462486934408297 ], [ -106.839635793197999, 40.474104573098003 ], [ -106.833960450568995, 40.479569030612701 ] ] } },
{ "type": "Feature", "properties": { "FID": 67, "ACTIVITYCO": "MOMP", "INPUT_DATE": 1693893600000.0, "EDIT_DATE": 1693893600000.0, "GlobalID": "5398b46f-e5bb-42c0-b106-808a595fcc0c", "Shape__Length": 4222.2335295311568 }, "geometry": { "type": "LineString", "coordinates": [ [ -106.841131391222007, 40.445856519309999 ], [ -106.829700537028998, 40.447096171295499 ], [ -106.803580986067999, 40.449924381518102 ] ] } },
{ "type": "Feature", "properties": { "FID": 68, "ACTIVITYCO": "MOMP", "INPUT_DATE": 1753077600000.0, "EDIT_DATE": 1753077600000.0, "GlobalID": "a4f8ec16-203e-4f99-ae9b-4dbe0a810655", "Shape__Length": 14638.655407940836 }, "geometry": { "type": "LineString", "coordinates": [ [ -106.249269593251, 38.796598231112597 ], [ -106.249262302307997, 38.796180644973703 ], [ -106.249525460322999, 38.795968998801101 ], [ -106.249518168052006, 38.795551412657801 ], [ -106.249890324066996, 38.795252098611698 ], [ -106.250310650689997, 38.795089440136898 ], [ -106.250832674956996, 38.7944215259743 ], [ -106.251160924263004, 38.794230168159402 ], [ -106.251356828436997, 38.793875918347297 ], [ -106.251796210757007, 38.793719197911699 ], [ -106.252540483881006, 38.793120554582501 ], [ -106.252744859009994, 38.792802042001902 ], [ -106.253175750682004, 38.792609577065797 ], [ -106.253547877263998, 38.792310251717602 ], [ -106.254135548351996, 38.791625807383099 ], [ -106.254507664680006, 38.791326479092902 ], [ -106.255277710960996, 38.790283570915499 ], [ -106.256394018969999, 38.789385572936702 ], [ -106.256869732319004, 38.788703229679697 ], [ -106.257583690941004, 38.788216776222903 ], [ -106.258036507135003, 38.788064234871797 ], [ -106.259152745929001, 38.787166210455702 ], [ -106.259605552026002, 38.7870136631634 ], [ -106.261093816048003, 38.785816276487402 ], [ -106.261515621024998, 38.7856073776816 ], [ -106.261612063580998, 38.7852688267362 ], [ -106.262037003135006, 38.784826331416497 ], [ -106.262136068421995, 38.784723172409798 ], [ -106.262700536636999, 38.784311761905698 ], [ -106.262923139704, 38.783965839542503 ], [ -106.263960102794002, 38.7828661404942 ], [ -106.264416155308993, 38.782719546428297 ], [ -106.264861543482994, 38.782149394640797 ], [ -106.265744190134001, 38.7818026667154 ], [ -106.266665190650997, 38.781121524626101 ], [ -106.267528224128995, 38.780739165495802 ], [ -106.268054317254993, 38.780315792918302 ], [ -106.268892911867994, 38.779889024865703 ], [ -106.269665513365993, 38.779342296889098 ], [ -106.270150784284994, 38.779248861766597 ], [ -106.270836142820002, 38.778826092825298 ], [ -106.271286738184003, 38.778672836992101 ], [ -106.271934689507006, 38.778185294974399 ], [ -106.272455212373998, 38.7781559526737 ], [ -106.273306701855006, 38.777752687843098 ], [ -106.273813366035, 38.777698154586801 ], [ -106.274718791961007, 38.777392947235199 ], [ -106.275212159828996, 38.777314244318902 ], [ -106.276441460548995, 38.777300822326801 ], [ -106.277679261418996, 38.777287294456798 ], [ -106.278412933233, 38.77727927 ], [ -106.279963527956994, 38.778097623976102 ], [ -106.280428395409999, 38.778147001923301 ], [ -106.280978703071, 38.778712996686501 ], [ -106.281505660665999, 38.778712391098203 ], [ -106.281705295817005, 38.779065184586301 ], [ -106.282193202144001, 38.779174361548797 ], [ -106.283603209090003, 38.779820923538601 ], [ -106.285410858892007, 38.780649783330297 ], [ -106.285891770446, 38.780747353053698 ], [ -106.286784895329006, 38.781077659595098 ], [ -106.287278759597001, 38.781149745934698 ], [ -106.287705514311, 38.781353875593702 ], [ -106.288713282673001, 38.781551597076501 ], [ -106.289140044910994, 38.781755721357797 ], [ -106.289565582246993, 38.781836750179302 ], [ -106.289913066913996, 38.782016638611204 ], [ -106.290829123253005, 38.782301855319702 ], [ -106.291172680154006, 38.782185995305497 ], [ -106.291487337407005, 38.782356296094903 ], [ -106.292020833996006, 38.782350398199597 ], [ -106.292291352503995, 38.782556238408397 ], [ -106.293887263494994, 38.7825385770727 ], [ -106.294581601819004, 38.782530886289997 ], [ -106.294844573882003, 38.782319140700601 ], [ -106.295072666134999, 38.782221255486 ], [ -106.295174541012003, 38.782177535795498 ], [ -106.295248892173007, 38.782171076931199 ], [ -106.296109808821001, 38.782096281281703 ], [ -106.296372774706001, 38.781884532342502 ], [ -106.297169229445998, 38.781666861520002 ], [ -106.297702719699004, 38.781660937774703 ], [ -106.298499168820996, 38.7814432579776 ], [ -106.299032657127, 38.781437328189703 ], [ -106.299829098328999, 38.781219639443798 ], [ -106.300854777238996, 38.781132767162902 ], [ -106.301052326211007, 38.781206025600497 ], [ -106.301577990271994, 38.781185878668502 ], [ -106.302005011963999, 38.780986582228003 ], [ -106.302957692825004, 38.780767131167103 ], [ -106.303491175147002, 38.7807611811131 ], [ -106.303922154701993, 38.780569077641502 ], [ -106.304443848112001, 38.780541717155401 ], [ -106.305388899869996, 38.779904668275101 ], [ -106.305886820916996, 38.779834141126102 ], [ -106.306760731612002, 38.779471671333802 ], [ -106.307915291702002, 38.778582225447799 ], [ -106.308331192615, 38.778008197413598 ], [ -106.308579827445996, 38.777665025453601 ], [ -106.308962480746999, 38.777490510966302 ], [ -106.309225391259005, 38.777278733890299 ], [ -106.309588095752005, 38.777142869097702 ], [ -106.309851003125999, 38.776931090656198 ], [ -106.310384455402996, 38.776925109629701 ], [ -106.310647359588998, 38.776713329443403 ], [ -106.311180811225, 38.776707344797202 ], [ -106.311866519630996, 38.776288681426898 ], [ -106.312669223605994, 38.775951277463498 ], [ -106.313078334303995, 38.7758507099554 ], [ -106.313463317761006, 38.775611192047698 ], [ -106.313726207927004, 38.775399405130202 ], [ -106.314114271902994, 38.774689766398502 ], [ -106.314510378617996, 38.774519429534898 ], [ -106.315002401016997, 38.773949588498802 ], [ -106.314531071448997, 38.773954891649304 ], [ -106.314731853078001, 38.773743801138401 ], [ -106.315265281720997, 38.773737798233 ], [ -106.315840632689003, 38.773522488283596 ], [ -106.316366382111994, 38.773098903545602 ], [ -106.316884882234007, 38.773081543339799 ], [ -106.317425545540004, 38.772669303894098 ], [ -106.317944040995002, 38.7726519381578 ], [ -106.318480236160994, 38.772231599939403 ], [ -106.318903791981995, 38.772026133721297 ], [ -106.319114840921998, 38.771720273499398 ], [ -106.319567415880002, 38.771567497347199 ], [ -106.320682614762006, 38.770668901411199 ], [ -106.321135179619006, 38.7705161193349 ], [ -106.321506903648995, 38.770216583369702 ], [ -106.321717266863999, 38.770123868824797 ], [ -106.321897382833995, 38.770044484800302 ], [ -106.322009972169994, 38.769888002357398 ], [ -106.322141468880005, 38.769705241012602 ], [ -106.322420812350998, 38.769498567767698 ], [ -106.323235414650995, 38.769053520122498 ], [ -106.323681124933998, 38.768888313642897 ], [ -106.323917312606, 38.768628132413497 ], [ -106.324400786298, 38.768466653126303 ], [ -106.324801312534007, 38.768197482328802 ], [ -106.32505806687, 38.7678621799326 ], [ -106.326421751761998, 38.767527269570699 ], [ -106.326793436906001, 38.767227718214997 ], [ -106.327234593265004, 38.767001363964802 ], [ -106.327741883596005, 38.766914086926299 ], [ -106.328798349341994, 38.766883298426599 ], [ -106.329227665521998, 38.766688363582702 ], [ -106.329761037352, 38.766682295452497 ], [ -106.330713436422997, 38.766462622416903 ], [ -106.331246806251002, 38.766456547536102 ], [ -106.331675165988003, 38.766259885389601 ], [ -106.332732566405994, 38.766230780870899 ], [ -106.333026605127003, 38.766042707662102 ], [ -106.333528730721, 38.766012866647301 ], [ -106.334595463446007, 38.766000688862803 ], [ -106.335965394493002, 38.766292085336801 ], [ -106.336096780738004, 38.766610027930398 ], [ -106.337696889518, 38.766591722231098 ], [ -106.337959674089007, 38.766379882328401 ], [ -106.338192224745995, 38.766516600921904 ], [ -106.339224481119004, 38.766156562785 ], [ -106.339487260663006, 38.765944719527099 ], [ -106.339921340180993, 38.765758456147097 ], [ -106.340972980070006, 38.765718848722699 ], [ -106.341391970139995, 38.765505208574702 ], [ -106.341925330514002, 38.7654990850899 ], [ -106.342188098386004, 38.765287235933499 ], [ -106.343222525147993, 38.765216393926998 ], [ -106.343673795845007, 38.765061331144302 ], [ -106.344203363329996, 38.764640701332397 ], [ -106.344732669625998, 38.764631488427497 ], [ -106.345570610322, 38.764204179366402 ], [ -106.346061580422003, 38.764165819065198 ], [ -106.346629459694, 38.7637743198297 ], [ -106.347120426155996, 38.763735955139502 ], [ -106.347675629212006, 38.763321470680502 ], [ -106.348851214649997, 38.762750644517901 ], [ -106.350233730011993, 38.7623184732985 ], [ -106.351219509711001, 38.762159413170302 ], [ -106.352112217892994, 38.761831528470701 ], [ -106.352645549718005, 38.761825356541998 ], [ -106.353605699016995, 38.7620230714153 ], [ -106.354032520188994, 38.762226958125801 ], [ -106.355626823090006, 38.762204078161702 ], [ -106.355622955325998, 38.761999688285698 ] ] } },
{ "type": "Feature", "properties": { "FID": 69, "ACTIVITYCO": "MOMP", "INPUT_DATE": 1753077600000.0, "EDIT_DATE": 1753077600000.0, "GlobalID": "af37ccf2-3109-4d48-b053-fec26fa63fbf", "Shape__Length": 17569.282938187142 }, "geometry": { "type": "LineString", "coordinates": [ [ -106.274420861541003, 38.815330245984697 ], [ -106.275488353501004, 38.8153185953052 ], [ -106.275758951686001, 38.815524471366601 ], [ -106.276292700067003, 38.8155186410958 ], [ -106.276540708997004, 38.815637243034899 ], [ -106.276719632349995, 38.815722806763702 ], [ -106.278320878566007, 38.815705295422902 ], [ -106.278781039400002, 38.8155994466834 ], [ -106.279274095831994, 38.815486029676698 ], [ -106.280875335147996, 38.815468483416304 ], [ -106.281314405027999, 38.815290666702403 ], [ -106.282072844143002, 38.815168837157302 ], [ -106.282301080981, 38.8151321743455 ], [ -106.283044866214993, 38.8148181814732 ], [ -106.283550875152997, 38.814761952098799 ], [ -106.283998057318996, 38.814598877577403 ], [ -106.284186103688, 38.814250808287703 ], [ -106.285807970340002, 38.813581139595598 ], [ -106.287917538076002, 38.813511577181202 ], [ -106.288344490225995, 38.813715700064499 ], [ -106.291013145308995, 38.813686238059198 ], [ -106.291524883544, 38.813640405274803 ], [ -106.291966295156996, 38.813466869772 ], [ -106.292500023637004, 38.813460965735104 ], [ -106.292978272309995, 38.813282163638704 ], [ -106.294970785703995, 38.812985288124302 ], [ -106.295406969599995, 38.812802274639999 ], [ -106.298075583152993, 38.812772651906201 ], [ -106.298494976114, 38.812559159392997 ], [ -106.299562417762004, 38.812547289453697 ], [ -106.299984639537001, 38.812338937952902 ], [ -106.301582960516996, 38.812315963746599 ], [ -106.302038662905005, 38.812168396764697 ], [ -106.303558961508003, 38.8120037764131 ], [ -106.303748773384001, 38.812062824040801 ], [ -106.303989181079004, 38.8120223065674 ], [ -106.304449848855995, 38.812075155604703 ], [ -106.304869218120999, 38.811861641480299 ], [ -106.305402931890001, 38.811855678707701 ], [ -106.305665976596998, 38.811643908482999 ], [ -106.306116299137003, 38.8115745367164 ], [ -106.306462730085002, 38.811426170127 ], [ -106.313400953517004, 38.811348370047298 ], [ -106.313911417404995, 38.811388123432799 ], [ -106.314827943577995, 38.811673142331699 ], [ -106.315215701802998, 38.811954443894301 ], [ -106.315749414053997, 38.811948433847903 ], [ -106.316202746214003, 38.812100656930703 ], [ -106.316396362931997, 38.812118126768297 ], [ -106.316710147983002, 38.812146439355601 ], [ -106.317137171076993, 38.812350455749097 ], [ -106.317670887022004, 38.812344436861302 ], [ -106.318952399639997, 38.812955636627898 ], [ -106.319485695145005, 38.812950444090298 ], [ -106.320335380833995, 38.813374002306297 ], [ -106.321277928903996, 38.813693988858603 ], [ -106.321301237401997, 38.813710457985998 ], [ -106.321655052365998, 38.813960460269698 ], [ -106.321668440299007, 38.813969920067798 ], [ -106.321673225105997, 38.813970002000502 ], [ -106.322194512609997, 38.813978948810401 ], [ -106.323056268152001, 38.814371870234297 ], [ -106.323569401542002, 38.814406374985303 ], [ -106.324444111218995, 38.814773804509997 ], [ -106.325098603186007, 38.814901930182103 ], [ -106.325452445611006, 38.814971197911902 ], [ -106.325895023466998, 38.815144633442401 ], [ -106.326925976102999, 38.815237482433503 ], [ -106.327421589926999, 38.815366498516397 ], [ -106.327955325011999, 38.815360432269102 ], [ -106.328446955649994, 38.815437277031798 ], [ -106.329363590013003, 38.815722179730599 ], [ -106.329698261915993, 38.815609235219803 ], [ -106.329738723863002, 38.815595579658599 ], [ -106.331409783115006, 38.815850325008398 ], [ -106.331882394068003, 38.815733383423499 ], [ -106.334017341673999, 38.815709022092499 ], [ -106.334450370439995, 38.815520300779099 ], [ -106.335866378514993, 38.815481767861598 ], [ -106.336037844822002, 38.815477100861997 ], [ -106.336457136140993, 38.8152634747577 ], [ -106.337524601837998, 38.815251257287002 ], [ -106.337943887254994, 38.815037625939901 ], [ -106.339011347780001, 38.815025394958298 ], [ -106.339463995532, 38.8148722593344 ], [ -106.339964356779006, 38.814805637321101 ], [ -106.34480616978, 38.814749997823498 ], [ -106.345301633481995, 38.814744292900798 ], [ -106.345720891916002, 38.814530634085003 ], [ -106.346254616774999, 38.814524484353399 ], [ -106.346693357359996, 38.8143461454545 ], [ -106.347207595135004, 38.814304667212902 ], [ -106.347626845132993, 38.8140910016878 ], [ -106.348132637343994, 38.814034214132199 ], [ -106.349862777050006, 38.813275909541602 ], [ -106.350976891814, 38.8126197832879 ], [ -106.351472626746002, 38.812584764846697 ], [ -106.351891854767004, 38.812371084347198 ], [ -106.352389493708998, 38.812299531498901 ], [ -106.352761296009007, 38.811999896627 ], [ -106.353797709904001, 38.8119313528072 ], [ -106.354742717098006, 38.811293908438302 ], [ -106.354893039323002, 38.811230967942997 ], [ -106.355179033016995, 38.811111219883998 ], [ -106.355695624576995, 38.811074024068098 ], [ -106.356114829654004, 38.810860328757002 ], [ -106.356618207050005, 38.810799185678 ], [ -106.357486925171997, 38.810426733225398 ], [ -106.357749807057004, 38.8102148485114 ], [ -106.35828349821, 38.810208644393697 ], [ -106.359144741761995, 38.809822663418899 ], [ -106.359655567437002, 38.809775023801897 ], [ -106.360600493061, 38.809137532365398 ], [ -106.361843892262996, 38.808606192325897 ], [ -106.363747784839006, 38.807221366431797 ], [ -106.364181668832003, 38.8070343258563 ], [ -106.364700608554003, 38.807001409929498 ], [ -106.365087056410999, 38.8067284198601 ], [ -106.365538914563999, 38.806573954738198 ], [ -106.366072575673002, 38.806567715545 ], [ -106.366305772800004, 38.806263728323501 ], [ -106.366802097326001, 38.806141523364801 ], [ -106.367335754928007, 38.806135278460403 ], [ -106.367754896617996, 38.805921542339199 ], [ -106.368261067217006, 38.805865493480098 ], [ -106.368707688686001, 38.8057015536534 ], [ -106.369241343732, 38.8056953000915 ], [ -106.370194127874001, 38.805475299410297 ], [ -106.371261432609998, 38.805462776346801 ], [ -106.37221420697, 38.805242759348602 ], [ -106.377017050483005, 38.805186246098103 ], [ -106.378025380558995, 38.805383185784798 ], [ -106.378452530984006, 38.805586975804303 ], [ -106.379519833683005, 38.805574377275398 ], [ -106.380019860497001, 38.805634404824801 ], [ -106.380960708524995, 38.805955981755197 ], [ -106.381488989483998, 38.805968766260897 ], [ -106.381975283803996, 38.806130766807797 ], [ -106.382497341816006, 38.806165666888504 ], [ -106.383401589770003, 38.8065642045256 ], [ -106.383932871981997, 38.806566328239398 ], [ -106.384360045760005, 38.806770096175903 ], [ -106.384856383922994, 38.806837405963002 ], [ -106.385292374170007, 38.807068871444699 ], [ -106.386758103025002, 38.807458116414203 ], [ -106.388054694092006, 38.808080993348298 ], [ -106.388345029841005, 38.808393439314202 ], [ -106.389255963907999, 38.808768372339102 ], [ -106.390038879206003, 38.8093311805669 ], [ -106.390914505526993, 38.809790057776802 ], [ -106.391919050588996, 38.810758154459599 ], [ -106.392794706301999, 38.811217016918903 ], [ -106.393167108547999, 38.811514873409401 ], [ -106.394205988121996, 38.812732374035598 ], [ -106.394937272622997, 38.813589361561299 ], [ -106.395382822741993, 38.8139974671099 ], [ -106.395966192345, 38.814531800039703 ], [ -106.396719137887004, 38.815634934499101 ], [ -106.398378022553004, 38.816893663639298 ], [ -106.398635007726995, 38.817088652757199 ], [ -106.398956110848999, 38.817415540553803 ], [ -106.399707630400002, 38.818519529652903 ], [ -106.400037141707003, 38.818841524196202 ], [ -106.400550470181997, 38.819570351891997 ], [ -106.401312227139996, 38.820154527161499 ], [ -106.402788413267999, 38.822378191278801 ], [ -106.403715588408005, 38.823390253610199 ], [ -106.405092743476004, 38.8246616108799 ], [ -106.405352298587005, 38.8250243555932 ], [ -106.405362274360996, 38.825069525070802 ], [ -106.405526554245995, 38.825813338301998 ], [ -106.405830722502998, 38.826150107725503 ], [ -106.406203934885994, 38.826914788596397 ], [ -106.406789643300996, 38.827609555974703 ], [ -106.406925748698995, 38.828001866576699 ], [ -106.407688961492994, 38.829044792270203 ], [ -106.408041116218001, 38.829276405099399 ], [ -106.408599495165006, 38.8298691279048 ], [ -106.409011955850005, 38.830102255076902 ], [ -106.40903572229, 38.830281522205198 ], [ -106.408978078450005, 38.830282217586301 ] ] } },
{ "type": "Feature", "properties": { "FID": 70, "ACTIVITYCO": "MOMP", "INPUT_DATE": 1753077600000.0, "EDIT_DATE": 1753077600000.0, "GlobalID": "4ebd1071-f0e6-4f2e-98d0-edcd7eae4af3", "Shape__Length": 19434.245086768431 }, "geometry": { "type": "LineString", "coordinates": [ [ -106.192012154867001, 38.835621593181898 ], [ -106.192553038805997, 38.836033735300902 ], [ -106.192560008734006, 38.836451327414302 ], [ -106.192754728471002, 38.8368058371248 ], [ -106.193102944613003, 38.836985777324998 ], [ -106.193109917990995, 38.837403369286399 ], [ -106.193305635982, 38.8377840714288 ], [ -106.193747283337999, 38.838157596668502 ], [ -106.194179450169997, 38.8385230980412 ], [ -106.194203422718005, 38.838927047873803 ], [ -106.194440775936997, 38.839299612287803 ], [ -106.194997349833997, 38.839957506355297 ], [ -106.195379847778, 38.8402489247879 ], [ -106.195574592227999, 38.840603429185002 ], [ -106.195957096005003, 38.840894845603302 ], [ -106.196384158284999, 38.8415912308378 ], [ -106.196923863204006, 38.842249767461396 ], [ -106.198071427038002, 38.843123998584602 ], [ -106.198284885465, 38.843472216454401 ], [ -106.198724444033999, 38.843621461763298 ], [ -106.199489512840003, 38.844204271431899 ], [ -106.199931027809995, 38.844356930712003 ], [ -106.200176622916004, 38.844727681558702 ], [ -106.201324266336997, 38.845601879087397 ], [ -106.201530986728002, 38.845952363287502 ], [ -106.202023309660007, 38.846048024224899 ], [ -106.202469679773003, 38.846268226483801 ], [ -106.202852242036997, 38.846559619109598 ], [ -106.203310521774, 38.8467025643561 ], [ -106.203695227447994, 38.846991569354699 ], [ -106.204175996648999, 38.847173397755903 ], [ -106.205384543741005, 38.847986672508299 ], [ -106.205832772429005, 38.848213722552799 ], [ -106.206750704051004, 38.8484982775853 ], [ -106.207538785379995, 38.849036138080201 ], [ -106.208432501881006, 38.849366883431699 ], [ -106.208926693871007, 38.849439441528702 ], [ -106.209353645481002, 38.849643852139202 ], [ -106.210836709253002, 38.850046147340798 ], [ -106.212091482454994, 38.8507105694136 ], [ -106.212544567205995, 38.850863752427102 ], [ -106.213315064887993, 38.851436192908601 ], [ -106.213825486344007, 38.851476938685103 ], [ -106.214077744684005, 38.851747414876698 ], [ -106.214570599043, 38.851886853514202 ], [ -106.214994715093994, 38.852096865047002 ], [ -106.215377359243007, 38.852388215031802 ], [ -106.216294043489, 38.852674002194497 ], [ -106.216695401134004, 38.852944474102799 ], [ -106.218044222662002, 38.853594368047801 ], [ -106.218828629567, 38.8541396308039 ], [ -106.219309004189, 38.854279648960002 ], [ -106.219757316930995, 38.854506643953499 ], [ -106.220107984090006, 38.854801266866502 ], [ -106.220880557650005, 38.855135482895399 ], [ -106.221283067018007, 38.855404687671303 ], [ -106.222682851654, 38.855933755044099 ], [ -106.222940627333998, 38.856184949300101 ], [ -106.223367658561003, 38.856389307139203 ], [ -106.224310435408, 38.856652609777498 ], [ -106.225202787537995, 38.857093572903501 ], [ -106.225705021666997, 38.857200121003402 ], [ -106.226132066687995, 38.857404468471202 ], [ -106.226629220689006, 38.857528921470298 ], [ -106.227053547381999, 38.857773792821803 ], [ -106.228538511563002, 38.858079817571301 ], [ -106.228974646381005, 38.858311514025601 ], [ -106.229947817908993, 38.8585342856042 ], [ -106.230439342842004, 38.858612147154098 ], [ -106.230973421271997, 38.858606518718602 ], [ -106.231400490534995, 38.858810846475301 ], [ -106.231906685431994, 38.858809683535299 ], [ -106.231931186609003, 38.858809626921797 ], [ -106.232176480876007, 38.859180605276798 ], [ -106.232679860331004, 38.8592150103661 ], [ -106.233106936845999, 38.859419331733697 ], [ -106.233612787308999, 38.859469090490002 ], [ -106.233995546131993, 38.859760377222102 ], [ -106.234969843382004, 38.860026136419698 ], [ -106.236318776073006, 38.860567764983401 ], [ -106.236814309272006, 38.860669160843301 ], [ -106.237962652006999, 38.861542984473303 ], [ -106.238421095351001, 38.861685788849599 ], [ -106.239033002659994, 38.8623574288847 ], [ -106.239949905748006, 38.862643027117898 ], [ -106.240715511863002, 38.863225555997602 ], [ -106.241169572835005, 38.863437269764901 ], [ -106.241403104498005, 38.863748713938698 ], [ -106.242168734320998, 38.864331232791798 ], [ -106.242627203696003, 38.864474020154198 ], [ -106.244270754618, 38.865519164441999 ], [ -106.244276820010995, 38.865523020547101 ], [ -106.244470412135001, 38.865604935725301 ], [ -106.244743612776006, 38.8657205344009 ], [ -106.245535079657998, 38.8662742378391 ], [ -106.246410514787996, 38.866734197228702 ], [ -106.247352002422005, 38.867120416606603 ], [ -106.248050611565006, 38.867695347870701 ], [ -106.251289742712999, 38.869125849695898 ], [ -106.251737734341006, 38.869344374845902 ], [ -106.252120618438994, 38.869635599593501 ], [ -106.252643044966007, 38.869652898198503 ], [ -106.252910874292994, 38.869994621763297 ], [ -106.253880002228996, 38.870207533172099 ], [ -106.255278961496998, 38.870801731125503 ], [ -106.255774284034999, 38.8708722435955 ], [ -106.256051287641995, 38.871109900126797 ], [ -106.256093880972003, 38.871146443306003 ], [ -106.256519835917004, 38.871281882070399 ], [ -106.258537771746006, 38.871677808827997 ], [ -106.259024731704997, 38.871838629219702 ], [ -106.259546747724002, 38.8718757589779 ], [ -106.259973976401994, 38.872079979090898 ], [ -106.261038926450993, 38.8720804308185 ], [ -106.261520007216006, 38.872262017117798 ], [ -106.262585485854999, 38.872260599932602 ], [ -106.264555900529999, 38.872656936947102 ], [ -106.266158429788007, 38.872639571069001 ], [ -106.266598732822004, 38.872818133545401 ], [ -106.267065301862999, 38.872667902206601 ], [ -106.267477718386004, 38.872822392577604 ], [ -106.268501653900003, 38.872614139019397 ], [ -106.270102982569995, 38.872594545046802 ], [ -106.270524006762997, 38.872383322629602 ], [ -106.271078846544, 38.872377284218402 ], [ -106.274263217707002, 38.8723425771935 ], [ -106.275758198009996, 38.871989988620598 ], [ -106.276181040243003, 38.872070607432299 ], [ -106.277160994084994, 38.871893259463597 ], [ -106.278229331567999, 38.871881569522998 ], [ -106.279230874430993, 38.871661772624599 ], [ -106.281361117649993, 38.871661027184899 ], [ -106.281842405381994, 38.871841962176902 ], [ -106.282376572263999, 38.871836097028499 ], [ -106.282834709903995, 38.871979622167302 ], [ -106.284361643002001, 38.872110501377499 ], [ -106.285862017550002, 38.872425686109104 ], [ -106.286343161006997, 38.872607169002798 ], [ -106.286871480938004, 38.872621962283098 ], [ -106.287832961532004, 38.872820190762397 ], [ -106.288263987733004, 38.873017006479301 ], [ -106.288794448415999, 38.873018411213202 ], [ -106.289207537799001, 38.873272796644301 ], [ -106.28969666223, 38.873426107118298 ], [ -106.290208129518007, 38.873464838973298 ], [ -106.291079578829994, 38.873859660996303 ], [ -106.293598295848994, 38.874427091961898 ], [ -106.294644460553002, 38.874493732119703 ], [ -106.295141584777994, 38.874618812817303 ], [ -106.295568928354996, 38.874822900566699 ], [ -106.296088953833006, 38.874844807806298 ], [ -106.296530460941995, 38.875021056423897 ], [ -106.299834215721006, 38.874984325441403 ], [ -106.301872332024004, 38.874961619132897 ], [ -106.302343945510003, 38.874842181749102 ], [ -106.302723607146007, 38.874943973287799 ], [ -106.303195467308996, 38.874765232490802 ], [ -106.304255125702994, 38.874726199300497 ], [ -106.305209041520996, 38.874506711804003 ], [ -106.305743223416002, 38.874500739438503 ], [ -106.306744711405997, 38.874280707435098 ], [ -106.307277143201006, 38.874269288751698 ], [ -106.308586117543996, 38.873634492280999 ], [ -106.309039355772995, 38.873481747905601 ], [ -106.309539514473997, 38.873414082341398 ], [ -106.310687146719999, 38.872840062621997 ], [ -106.311224577418002, 38.872571244959197 ], [ -106.311500224498005, 38.872241708677997 ], [ -106.311901278264003, 38.872134600915302 ], [ -106.312123348186006, 38.871848163920802 ], [ -106.312576567213, 38.871695406096002 ], [ -106.313131136728998, 38.8710373502851 ], [ -106.313572354363998, 38.870862842949599 ], [ -106.313873479487995, 38.870559242025202 ], [ -106.314219845303995, 38.8703732813401 ], [ -106.315336618893994, 38.869474723197101 ], [ -106.315720183387995, 38.869300318344997 ], [ -106.315972090713004, 38.868963406661301 ], [ -106.316878473158994, 38.868657860178701 ], [ -106.317250714378005, 38.868358333427999 ], [ -106.317761348109997, 38.868309702805703 ], [ -106.318244327116005, 38.868144582726302 ], [ -106.319258500787001, 38.8680140336226 ], [ -106.319716488259004, 38.867869965702397 ], [ -106.320245809832997, 38.867855210840503 ], [ -106.320670261851006, 38.867650354053197 ], [ -106.321738516224997, 38.867638267219299 ], [ -106.322158154787004, 38.8674246881776 ], [ -106.323226405141995, 38.867412587792998 ], [ -106.323660871721003, 38.867225892819 ], [ -106.324714284123999, 38.867186889561602 ], [ -106.326465333176003, 38.866749354023 ], [ -106.326966859985006, 38.866684214459397 ], [ -106.327151288522003, 38.866326339878199 ], [ -106.327501890701996, 38.866105638961699 ], [ -106.327830914228002, 38.865898520525 ], [ -106.328246636553999, 38.865786329498299 ], [ -106.329716027363006, 38.865389771838203 ], [ -106.330164258579998, 38.865170225587001 ], [ -106.330542454512994, 38.865194095340897 ], [ -106.331632664984994, 38.864623998780203 ], [ -106.332574433752001, 38.864382686183099 ], [ -106.333782384347998, 38.863823826121497 ], [ -106.334210844892993, 38.863737515775199 ], [ -106.334744939950994, 38.863731412166402 ], [ -106.335542176833002, 38.863513468612403 ], [ -106.335805316106004, 38.863301630549003 ], [ -106.336291198690006, 38.8631456996034 ], [ -106.336695276265999, 38.862879718566901 ], [ -106.338065234368003, 38.862440444003397 ], [ -106.338595384111997, 38.862422094102598 ], [ -106.339069580829005, 38.862229875580603 ], [ -106.340134612775998, 38.8622078844638 ], [ -106.340554161754994, 38.861994240662099 ], [ -106.341583356306003, 38.861911374474403 ], [ -106.341756955706998, 38.8617715983982 ] ] } },
{ "type": "Feature", "properties": { "FID": 71, "ACTIVITYCO": "MOMP", "INPUT_DATE": 1753077600000.0, "EDIT_DATE": 1753077600000.0, "GlobalID": "f204c81f-eed0-4c02-ab53-62ed0dae7440", "Shape__Length": 15104.426253241232 }, "geometry": { "type": "LineString", "coordinates": [ [ -106.254213751090006, 38.971752833239599 ], [ -106.254594156577994, 38.971871070848202 ], [ -106.254967193119001, 38.971571734540802 ], [ -106.255809878148995, 38.971246355951699 ], [ -106.256727989436996, 38.9703705146731 ], [ -106.257588196385996, 38.969891953941897 ], [ -106.258334220296007, 38.969293262487099 ], [ -106.259593408548, 38.968562493455401 ], [ -106.260088813698999, 38.968433754090398 ], [ -106.260508520740004, 38.968183547340701 ], [ -106.260991889416005, 38.968019392304498 ], [ -106.261504567369002, 38.967915368345103 ], [ -106.261924975417998, 38.9677019965076 ], [ -106.263930843430003, 38.967262634384397 ], [ -106.264465731075006, 38.967256839301598 ], [ -106.265421009598001, 38.967037657573897 ], [ -106.267008814600004, 38.966989697525101 ], [ -106.267446048327002, 38.966806853205 ], [ -106.267980930663995, 38.966801042080398 ], [ -106.269451855681993, 38.966367397071402 ], [ -106.269986734297007, 38.966361576808502 ], [ -106.270827475996995, 38.965934771581402 ], [ -106.271857280416, 38.965850704349798 ], [ -106.272717328637, 38.965372034320303 ], [ -106.274004515738994, 38.9650648230892 ], [ -106.274506927822998, 38.965122660111099 ], [ -106.274967220391005, 38.965263134061303 ], [ -106.275501700922007, 38.965258658965503 ], [ -106.275983453199999, 38.965440171620301 ], [ -106.276512442249995, 38.965455065982198 ], [ -106.277475158640001, 38.965653356041202 ], [ -106.277899541406001, 38.965447247125198 ], [ -106.278323351238001, 38.965644067032102 ], [ -106.279129413397001, 38.965844060357902 ], [ -106.279557266520001, 38.966048195148602 ], [ -106.280092140630998, 38.966042328611202 ], [ -106.280542134008996, 38.966203023854398 ], [ -106.281054874183994, 38.966240588810699 ], [ -106.282017612901001, 38.966438840968799 ], [ -106.284157118096999, 38.966415314814398 ], [ -106.284587242900997, 38.9662196126162 ], [ -106.285112321385995, 38.966195973026203 ], [ -106.286535480778994, 38.965762639261698 ], [ -106.287051819604997, 38.965723162303497 ], [ -106.287971235086999, 38.965368512533203 ], [ -106.288493488189999, 38.965323382560499 ], [ -106.289311656646007, 38.964826644831199 ], [ -106.291259132834, 38.964144492041903 ], [ -106.292136890335001, 38.963684463322402 ], [ -106.292630100457998, 38.963573166480401 ], [ -106.293375758278003, 38.962974255538001 ], [ -106.293850063015, 38.962781494348 ], [ -106.294235624143994, 38.962495429689298 ], [ -106.295143284193003, 38.962190035693297 ], [ -106.295520884764002, 38.961895607415599 ], [ -106.296933423504996, 38.961429605155402 ], [ -106.298678216384999, 38.960621516471797 ], [ -106.299673784906005, 38.960321458997001 ], [ -106.301853975944994, 38.959341326436103 ], [ -106.302307769829994, 38.959188600765799 ], [ -106.303296378219997, 38.959029901372098 ], [ -106.304657738239001, 38.958571702562303 ], [ -106.304847944908005, 38.958630739306003 ], [ -106.305288640143999, 38.9584542993314 ], [ -106.305823451726994, 38.958448315837899 ], [ -106.306243667163997, 38.958234787194201 ], [ -106.306744096122998, 38.958166534988798 ], [ -106.307116838221006, 38.9578670371287 ], [ -106.307570610911995, 38.957714291307298 ], [ -106.307943347122006, 38.957414789983801 ], [ -106.308397115090003, 38.957262041016698 ], [ -106.309142572631998, 38.956663032093203 ], [ -106.309605293176006, 38.956526504914798 ], [ -106.310232606160994, 38.955998986581697 ], [ -106.310415118863006, 38.955640449576698 ], [ -106.311027030570003, 38.955148719223097 ], [ -106.311160541285005, 38.955041428196601 ], [ -106.312020189346001, 38.954562475255997 ], [ -106.312392890279995, 38.954262960168101 ], [ -106.312892075280004, 38.954192490760398 ], [ -106.313951303590002, 38.953716734214801 ], [ -106.314215292377995, 38.953598160307003 ], [ -106.315269751014995, 38.953539238819097 ], [ -106.316778000368998, 38.953148281688499 ], [ -106.317828727033003, 38.953072470223603 ], [ -106.318259987136997, 38.952879021335697 ], [ -106.319329520777998, 38.952866934465 ], [ -106.319812668338002, 38.952700569385797 ], [ -106.320332060013001, 38.952646770322403 ], [ -106.320752195482001, 38.952433190581203 ], [ -106.321815835261006, 38.952410423759602 ], [ -106.322241852031993, 38.952207495963599 ], [ -106.322756884225996, 38.952140170482203 ], [ -106.324214199915005, 38.951623106701597 ], [ -106.324651357955005, 38.951402487742499 ], [ -106.325154481376998, 38.951339155281701 ], [ -106.325640993554003, 38.951183293265402 ], [ -106.326045619701006, 38.950917361383198 ], [ -106.327527924140995, 38.950524752097202 ], [ -106.329660670471995, 38.949408469895403 ], [ -106.330634072321004, 38.949135630216297 ], [ -106.331006665410001, 38.9488360572659 ], [ -106.331457432582994, 38.948618625995998 ], [ -106.331932216626996, 38.948426428804403 ], [ -106.332434018033993, 38.948324172811901 ], [ -106.332839486197003, 38.9480591486194 ], [ -106.333326478993996, 38.947904865774099 ], [ -106.334166612648005, 38.947477613234199 ], [ -106.334683974940006, 38.947417614753 ], [ -106.335594855455994, 38.947054134926297 ], [ -106.336123804177006, 38.947037570687897 ], [ -106.337409403782004, 38.946442706243502 ], [ -106.337918673087003, 38.946390530199203 ], [ -106.338602147775006, 38.945965041785101 ], [ -106.340346684747004, 38.945140244158402 ], [ -106.340529018054994, 38.944781662553901 ], [ -106.340901545150004, 38.944482058938497 ], [ -106.341136101548997, 38.944107181105302 ], [ -106.341489578332002, 38.943797184177797 ], [ -106.341690857065998, 38.943444478848598 ], [ -106.342083837793993, 38.943210323235803 ], [ -106.342215367161003, 38.942898469929503 ], [ -106.342415955725002, 38.9426417565208 ], [ -106.342737563206995, 38.942230157496297 ], [ -106.343417468699002, 38.9416107489834 ], [ -106.343520837379003, 38.941227685120403 ], [ -106.343781923912005, 38.940893525942201 ], [ -106.343774201174, 38.940476015293797 ], [ -106.344296203951998, 38.939807646683498 ], [ -106.344321109638997, 38.939400254303699 ], [ -106.344549394747006, 38.9390559266133 ], [ -106.345139272997997, 38.938530190103698 ], [ -106.345334921868997, 38.938175742893399 ], [ -106.346387072995, 38.937256649086898 ], [ -106.346431080621997, 38.936855183056402 ], [ -106.346803542976005, 38.9365555622649 ], [ -106.347431465514006, 38.935626512762802 ], [ -106.347803916114998, 38.935326888017997 ], [ -106.347986187811998, 38.934968295285202 ], [ -106.348358633833001, 38.934668669727202 ], [ -106.348741150514996, 38.9344937469032 ], [ -106.348804256258006, 38.934098206443899 ], [ -106.349254477846003, 38.933939318381697 ], [ -106.351666485151, 38.9318231525111 ], [ -106.352190481075993, 38.931797770681101 ], [ -106.352426621264001, 38.931455882120702 ], [ -106.353479943958007, 38.930608369479998 ], [ -106.353879540937001, 38.930438737512297 ], [ -106.354662767039002, 38.9299089826185 ], [ -106.354887653326003, 38.9296275650117 ], [ -106.355345983399999, 38.9294833995612 ], [ -106.355872615869998, 38.9290596316443 ], [ -106.356390995541005, 38.929041137413599 ], [ -106.357444236267, 38.928193590116898 ], [ -106.357957510849005, 38.9270704603178 ], [ -106.358019445243002, 38.9262594792825 ], [ -106.358383839254998, 38.925542263214901 ], [ -106.358724474466996, 38.925232771814997 ], [ -106.358938384091005, 38.924883995768099 ], [ -106.359655119053002, 38.924519160861898 ], [ -106.359831920180994, 38.924171148848998 ], [ -106.359837304446998, 38.924160550534097 ], [ -106.360284594310002, 38.923996477566199 ], [ -106.360967720394996, 38.9235708618939 ], [ -106.361177826380995, 38.923536332923902 ], [ -106.361460899269005, 38.923489811371802 ], [ -106.361625633900999, 38.923165528029998 ], [ -106.361235100390005, 38.923459552318299 ], [ -106.361177826380995, 38.923536332923902 ], [ -106.360839406422002, 38.923990010327799 ] ] } }
]
}
